{"type":"FeatureCollection","features":[{"type":"Feature","properties":{"code":"CY"},"geometry":{"type":"MultiPolygon","coordinates":[[[[33.703,34.988],[33.606,34.822],[32.963,34.625],[32.988,34.673],[32.86,34.701],[32.707,34.645],[32.459,34.722],[32.329,34.886],[32.272,35.073],[32.414,35.043],[32.548,35.176],[32.66,35.187],[32.826,35.059],[33.174,35.163],[33.301,35.114],[33.416,35.16],[33.459,34.978],[33.52,35.044],[33.546,34.995],[33.703,34.988]]],[[[33.898,35.061],[34.022,35.057],[34.099,34.965],[33.846,34.96],[33.804,35.05],[33.898,35.061]]]]}},{"type":"Feature","properties":{"code":"FR"},"geometry":{"type":"MultiPolygon","coordinates":[[[[2.522,51.088],[2.608,50.961],[2.587,50.845],[2.787,50.723],[2.887,50.697],[3.129,50.779],[3.232,50.696],[3.271,50.527],[3.608,50.477],[3.697,50.298],[3.755,50.346],[4.003,50.344],[4.198,50.258],[4.126,50.128],[4.21,50.06],[4.132,49.975],[4.435,49.932],[4.646,49.984],[4.682,50.084],[4.789,50.153],[4.816,50.161],[4.872,50.14],[4.784,49.958],[4.86,49.913],[4.849,49.794],[5.259,49.691],[5.298,49.613],[5.402,49.602],[5.456,49.499],[5.746,49.549],[5.961,49.441],[6.194,49.499],[6.403,49.465],[6.495,49.436],[6.512,49.425],[6.714,49.159],[6.822,49.148],[6.833,49.209],[6.914,49.207],[7.009,49.182],[7.043,49.108],[7.274,49.105],[7.41,49.169],[7.635,49.038],[7.932,49.035],[8.2,48.959],[8.09,48.808],[7.81,48.615],[7.751,48.341],[7.586,48.13],[7.621,47.971],[7.512,47.707],[7.586,47.585],[7.379,47.431],[6.973,47.489],[6.991,47.452],[6.867,47.354],[7.037,47.33],[6.665,47.021],[6.443,46.944],[6.429,46.761],[6.118,46.583],[6.122,46.57],[6.146,46.552],[6.054,46.419],[6.135,46.37],[6.094,46.253],[5.955,46.2],[5.959,46.13],[6.14,46.15],[6.281,46.24],[6.214,46.315],[6.269,46.375],[6.483,46.449],[6.787,46.414],[6.75,46.346],[6.828,46.269],[6.766,46.152],[6.869,46.112],[6.851,46.05],[6.915,46.049],[7.022,45.925],[6.801,45.826],[6.796,45.718],[6.963,45.641],[6.983,45.511],[7.161,45.411],[7.055,45.214],[6.603,45.103],[6.723,45.013],[6.745,44.908],[7.007,44.822],[7.055,44.685],[6.96,44.683],[6.836,44.534],[6.918,44.436],[6.866,44.372],[6.983,44.242],[7.331,44.125],[7.656,44.176],[7.69,44.067],[7.478,43.866],[7.476,43.765],[7.152,43.655],[7.139,43.554],[6.962,43.54],[6.894,43.428],[6.731,43.408],[6.591,43.269],[6.693,43.273],[6.68,43.202],[6.402,43.147],[6.375,43.091],[6.193,43.109],[6.18,43.036],[6.089,43.035],[6.129,43.071],[5.941,43.134],[5.879,43.12],[5.951,43.08],[5.857,43.045],[5.674,43.18],[5.347,43.216],[5.369,43.27],[5.294,43.355],[5.034,43.335],[5.026,43.409],[5.226,43.48],[5.029,43.559],[5.051,43.429],[4.868,43.421],[4.901,43.367],[4.877,43.351],[4.856,43.342],[4.758,43.422],[4.695,43.579],[4.82,43.346],[4.592,43.36],[4.513,43.456],[4.182,43.464],[4.105,43.552],[3.953,43.54],[3.513,43.281],[3.318,43.263],[3.114,43.106],[3.039,42.943],[3.042,42.629],[3.181,42.431],[2.934,42.47],[2.69,42.406],[2.662,42.339],[2.515,42.326],[2.277,42.429],[1.996,42.349],[1.927,42.437],[1.712,42.494],[1.765,42.563],[1.722,42.61],[1.543,42.649],[1.429,42.595],[1.343,42.709],[1.151,42.707],[1.089,42.771],[0.813,42.832],[0.656,42.838],[0.644,42.684],[0.354,42.717],[0.275,42.669],[0.169,42.726],[-0.039,42.685],[-0.161,42.795],[-0.323,42.843],[-0.569,42.773],[-0.76,42.947],[-1.15,43.006],[-1.294,43.055],[-1.286,43.109],[-1.366,43.033],[-1.457,43.045],[-1.475,43.06],[-1.488,43.082],[-1.404,43.243],[-1.559,43.284],[-1.622,43.247],[-1.655,43.298],[-1.747,43.291],[-1.796,43.374],[-1.661,43.4],[-1.477,43.58],[-1.257,44.556],[-1.187,44.665],[-1.045,44.669],[-1.172,44.778],[-1.26,44.627],[-1.134,45.505],[-1.059,45.57],[-1.04,45.507],[-0.794,45.355],[-0.716,45.135],[-0.569,44.998],[-0.548,44.902],[-0.539,44.977],[-0.596,45.025],[-0.494,44.998],[-0.656,45.099],[-0.795,45.477],[-1.247,45.71],[-1.23,45.78],[-1.23,45.792],[-1.164,45.807],[-0.987,45.717],[-1.152,45.868],[-1.073,45.904],[-1.111,46.018],[-1.049,46.039],[-1.211,46.175],[-1.111,46.303],[-1.24,46.284],[-1.789,46.533],[-1.795,46.495],[-1.91,46.692],[-2.119,46.82],[-2.129,46.893],[-1.991,47.035],[-2.03,47.092],[-2.241,47.142],[-2.165,47.168],[-2.161,47.271],[-2.015,47.3],[-1.727,47.211],[-2.01,47.32],[-2.278,47.246],[-2.542,47.3],[-2.436,47.307],[-2.556,47.383],[-2.392,47.424],[-2.495,47.491],[-2.364,47.506],[-2.622,47.513],[-2.577,47.554],[-2.83,47.504],[-2.909,47.558],[-2.741,47.551],[-2.707,47.643],[-2.709,47.602],[-2.789,47.643],[-2.919,47.596],[-2.975,47.664],[-2.94,47.561],[-3.123,47.599],[-3.085,47.478],[-3.132,47.478],[-3.141,47.598],[-3.201,47.64],[-3.118,47.732],[-3.193,47.746],[-3.159,47.711],[-3.224,47.656],[-3.358,47.697],[-3.283,47.691],[-3.358,47.711],[-3.283,47.787],[-3.446,47.705],[-3.528,47.78],[-3.852,47.801],[-3.962,47.9],[-4.037,47.855],[-4.132,47.924],[-4.111,47.869],[-4.186,47.874],[-4.185,47.813],[-4.372,47.807],[-4.347,47.863],[-4.435,47.976],[-4.728,48.041],[-4.285,48.115],[-4.302,48.196],[-4.379,48.232],[-4.485,48.243],[-4.557,48.177],[-4.547,48.253],[-4.626,48.287],[-4.547,48.347],[-4.516,48.296],[-4.187,48.308],[-4.325,48.322],[-4.269,48.363],[-4.454,48.335],[-4.29,48.432],[-4.768,48.345],[-4.765,48.52],[-4.74,48.551],[-4.722,48.568],[-4.577,48.568],[-4.6,48.589],[-4.608,48.603],[-4.53,48.602],[-4.564,48.63],[-4.343,48.679],[-4.194,48.65],[-3.974,48.733],[-3.955,48.658],[-3.892,48.678],[-3.852,48.63],[-3.81,48.733],[-3.585,48.683],[-3.528,48.739],[-3.582,48.791],[-3.515,48.842],[-3.398,48.807],[-3.23,48.872],[-3.221,48.794],[-3.091,48.871],[-3.125,48.76],[-3.008,48.821],[-3.042,48.788],[-2.933,48.767],[-2.682,48.509],[-2.487,48.65],[-2.316,48.699],[-2.282,48.671],[-2.33,48.63],[-2.251,48.65],[-2.214,48.582],[-2.052,48.65],[-1.98,48.514],[-1.953,48.575],[-2.029,48.643],[-1.946,48.699],[-1.844,48.712],[-1.861,48.641],[-1.838,48.624],[-1.796,48.616],[-1.357,48.643],[-1.554,48.747],[-1.603,48.849],[-1.508,49.034],[-1.594,49.029],[-1.61,49.216],[-1.548,49.225],[-1.625,49.219],[-1.699,49.356],[-1.816,49.384],[-1.885,49.531],[-1.84,49.62],[-1.946,49.678],[-1.935,49.724],[-1.607,49.65],[-1.409,49.712],[-1.263,49.696],[-1.228,49.624],[-1.306,49.558],[-1.176,49.415],[-1.182,49.356],[-1.123,49.345],[-1.072,49.397],[-0.94,49.392],[-0.219,49.28],[0.411,49.452],[0.493,49.494],[0.422,49.464],[0.34,49.457],[0.079,49.516],[0.186,49.703],[0.597,49.857],[1.221,49.979],[1.521,50.215],[1.673,50.193],[1.542,50.278],[1.61,50.371],[1.61,50.377],[1.555,50.405],[1.61,50.548],[1.581,50.869],[1.921,50.997],[2.522,51.088]]],[[[8.566,42.209],[8.549,42.242],[8.688,42.273],[8.549,42.377],[8.66,42.43],[8.709,42.579],[8.787,42.562],[9.118,42.732],[9.292,42.675],[9.328,42.72],[9.343,42.749],[9.306,42.839],[9.347,43.004],[9.464,42.99],[9.443,42.641],[9.528,42.564],[9.56,42.147],[9.403,41.953],[9.402,41.706],[9.347,41.62],[9.292,41.626],[9.351,41.581],[9.211,41.448],[9.211,41.407],[9.25,41.428],[9.223,41.373],[9.096,41.404],[9.08,41.482],[8.792,41.561],[8.802,41.639],[8.923,41.695],[8.655,41.75],[8.785,41.824],[8.751,41.846],[8.805,41.907],[8.614,41.901],[8.586,41.969],[8.745,42.057],[8.56,42.154],[8.566,42.209]]],[[[-1.219,45.944],[-1.176,45.899],[-1.227,45.82],[-1.405,46.053],[-1.248,46.002],[-1.219,45.944]]],[[[-1.281,46.156],[-1.556,46.252],[-1.308,46.207],[-1.281,46.156]]],[[[-2.337,46.732],[-2.269,46.697],[-2.291,46.704],[-2.371,46.704],[-2.337,46.732]]],[[[-2.2,46.985],[-2.159,46.916],[-2.296,47.033],[-2.2,46.985]]],[[[-3.115,47.331],[-3.063,47.321],[-3.067,47.302],[-3.094,47.297],[-3.172,47.302],[-3.223,47.312],[-3.262,47.383],[-3.115,47.331]]]]}},{"type":"Feature","properties":{"code":"LT"},"geometry":{"type":"MultiPolygon","coordinates":[[[[26.595,55.667],[26.605,55.59],[26.45,55.327],[26.801,55.273],[26.657,55.215],[26.601,55.121],[26.264,55.14],[26.139,54.969],[25.87,54.939],[25.783,54.87],[25.721,54.767],[25.74,54.569],[25.631,54.508],[25.529,54.321],[25.696,54.321],[25.789,54.236],[25.763,54.156],[25.516,54.145],[25.502,54.222],[25.554,54.231],[25.459,54.299],[25.37,54.248],[25.206,54.257],[25.072,54.132],[24.822,54.135],[24.789,53.97],[24.667,53.994],[24.378,53.887],[24.17,53.959],[23.627,53.898],[23.486,53.939],[23.474,54.113],[23.354,54.217],[23.05,54.295],[22.963,54.382],[22.838,54.401],[22.767,54.356],[22.707,54.419],[22.701,54.68],[22.848,54.814],[22.821,54.885],[22.633,54.958],[22.565,55.068],[22.077,55.029],[22.003,55.093],[21.504,55.194],[21.375,55.29],[21.35,55.288],[21.268,55.249],[21.257,55.369],[21.183,55.346],[21.248,55.418],[21.223,55.52],[21.061,55.789],[21.053,56.073],[21.19,56.084],[21.328,56.224],[22.094,56.417],[22.666,56.349],[22.925,56.412],[23.062,56.304],[23.288,56.373],[23.707,56.354],[24.139,56.257],[24.319,56.299],[24.481,56.269],[24.871,56.443],[25.073,56.198],[25.662,56.141],[26.28,55.743],[26.595,55.667]]],[[[20.989,55.273],[20.925,55.283],[21.082,55.498],[21.085,55.723],[21.117,55.7],[21.132,55.656],[21.106,55.421],[20.989,55.273]]]]}},{"type":"Feature","properties":{"code":"CZ"},"geometry":{"type":"MultiPolygon","coordinates":[[[[14.81,50.858],[14.982,50.859],[14.961,50.993],[15.144,51.012],[15.27,50.953],[15.256,50.9],[15.356,50.775],[15.792,50.743],[15.848,50.675],[15.971,50.679],[15.982,50.604],[16.332,50.644],[16.417,50.587],[16.426,50.568],[16.2,50.406],[16.344,50.37],[16.661,50.093],[16.818,50.187],[17.015,50.218],[16.866,50.408],[16.866,50.422],[16.893,50.433],[17.188,50.378],[17.424,50.241],[17.708,50.311],[17.748,50.218],[17.589,50.163],[17.633,50.106],[17.732,50.095],[17.839,49.974],[18.032,50.003],[18.002,50.047],[18.292,49.908],[18.559,49.907],[18.618,49.714],[18.788,49.669],[18.833,49.51],[18.536,49.482],[18.385,49.342],[18.161,49.259],[18.076,49.047],[17.914,49.01],[17.879,48.934],[17.727,48.863],[17.535,48.813],[17.167,48.86],[16.945,48.604],[16.873,48.719],[16.52,48.806],[16.358,48.727],[16.085,48.743],[15.818,48.872],[15.681,48.858],[15.275,48.987],[15.142,48.937],[15.137,48.993],[15.06,48.997],[15.004,49.01],[14.94,48.763],[14.8,48.777],[14.676,48.576],[14.458,48.643],[14.325,48.559],[14.041,48.601],[13.991,48.7],[13.816,48.766],[13.609,48.946],[13.427,48.96],[13.0,49.295],[12.778,49.333],[12.644,49.429],[12.496,49.67],[12.384,49.743],[12.524,49.905],[12.247,50.045],[12.08,50.243],[12.076,50.315],[12.24,50.257],[12.3,50.161],[12.336,50.259],[12.51,50.389],[12.817,50.443],[12.953,50.404],[13.01,50.493],[13.16,50.497],[13.369,50.628],[13.448,50.597],[13.557,50.707],[13.835,50.724],[13.96,50.802],[14.347,50.88],[14.376,50.896],[14.382,50.921],[14.238,50.982],[14.288,51.037],[14.482,51.037],[14.574,50.975],[14.55,50.912],[14.629,50.921],[14.613,50.846],[14.759,50.81],[14.81,50.858]]]]}},{"type":"Feature","properties":{"code":"DE"},"geometry":{"type":"MultiPolygon","coordinates":[[[[13.816,48.766],[13.802,48.612],[13.717,48.522],[13.455,48.573],[13.406,48.377],[12.739,48.113],[12.991,47.847],[12.892,47.724],[13.072,47.659],[13.002,47.466],[12.779,47.555],[12.813,47.612],[12.762,47.667],[12.497,47.629],[12.424,47.692],[12.239,47.679],[12.242,47.732],[12.177,47.706],[12.174,47.605],[11.62,47.59],[11.551,47.514],[11.413,47.506],[11.384,47.445],[11.237,47.394],[11.194,47.429],[10.979,47.391],[10.859,47.531],[10.483,47.533],[10.429,47.577],[10.428,47.396],[10.16,47.271],[10.209,47.372],[10.083,47.359],[10.072,47.439],[9.946,47.541],[9.833,47.535],[9.782,47.588],[9.613,47.522],[9.183,47.67],[8.882,47.656],[8.558,47.801],[8.391,47.665],[8.607,47.656],[8.574,47.592],[8.233,47.622],[8.042,47.561],[7.61,47.565],[7.66,47.597],[7.637,47.595],[7.586,47.585],[7.512,47.707],[7.621,47.971],[7.579,48.114],[7.751,48.341],[7.81,48.615],[8.09,48.808],[8.2,48.959],[7.932,49.035],[7.635,49.038],[7.41,49.169],[7.274,49.105],[7.043,49.108],[7.009,49.182],[6.914,49.207],[6.726,49.156],[6.512,49.425],[6.345,49.455],[6.351,49.567],[6.5,49.712],[6.503,49.796],[6.303,49.835],[6.096,50.049],[6.147,50.214],[6.375,50.315],[6.337,50.481],[6.171,50.518],[6.249,50.614],[6.012,50.709],[5.973,50.782],[6.064,50.908],[6.004,50.974],[5.875,50.965],[5.874,50.991],[5.858,51.019],[6.147,51.152],[6.057,51.212],[6.208,51.388],[6.193,51.509],[6.153,51.538],[6.086,51.596],[6.099,51.644],[5.939,51.732],[5.931,51.816],[6.156,51.842],[6.093,51.885],[6.127,51.897],[6.345,51.821],[6.744,51.908],[6.809,51.98],[6.68,52.06],[7.026,52.231],[7.048,52.365],[7.034,52.391],[6.973,52.451],[6.715,52.462],[6.672,52.542],[6.688,52.543],[6.744,52.56],[6.711,52.577],[6.704,52.583],[6.737,52.635],[7.018,52.626],[7.062,52.824],[7.193,52.998],[7.195,53.245],[7.255,53.32],[7.367,53.303],[7.024,53.376],[7.051,53.513],[7.142,53.537],[7.087,53.587],[7.226,53.666],[8.031,53.708],[8.168,53.553],[8.059,53.502],[8.077,53.469],[8.205,53.411],[8.315,53.475],[8.231,53.525],[8.271,53.613],[8.552,53.544],[8.49,53.486],[8.504,53.358],[8.498,53.475],[8.566,53.547],[8.486,53.7],[8.588,53.87],[8.861,53.831],[9.211,53.872],[9.283,53.862],[9.582,53.591],[9.832,53.544],[9.584,53.612],[9.395,53.831],[8.916,53.937],[8.833,54.036],[8.997,54.03],[9.018,54.098],[8.813,54.18],[8.84,54.256],[8.963,54.318],[8.678,54.269],[8.6,54.338],[8.696,54.359],[8.635,54.365],[8.648,54.406],[8.886,54.418],[9.012,54.506],[8.689,54.735],[8.661,54.896],[8.904,54.898],[9.244,54.802],[9.58,54.866],[9.824,54.757],[9.948,54.78],[10.018,54.701],[9.929,54.674],[10.039,54.667],[10.027,54.56],[9.84,54.475],[10.143,54.492],[10.204,54.461],[10.142,54.324],[10.318,54.443],[10.731,54.31],[11.136,54.386],[11.067,54.359],[11.067,54.184],[10.753,54.05],[10.902,53.961],[11.175,54.018],[11.243,53.945],[11.458,53.906],[11.519,54.036],[11.69,54.155],[12.088,54.194],[12.115,54.098],[12.109,54.183],[12.342,54.304],[12.534,54.488],[12.921,54.433],[12.438,54.388],[12.363,54.31],[12.412,54.251],[12.541,54.372],[12.705,54.415],[12.684,54.372],[12.855,54.358],[13.009,54.438],[13.096,54.372],[13.115,54.28],[13.289,54.234],[13.322,54.167],[13.403,54.174],[13.484,54.091],[13.712,54.174],[13.808,54.105],[13.746,54.036],[13.906,53.943],[13.817,53.853],[14.037,53.755],[14.264,53.752],[14.213,53.708],[14.264,53.7],[14.442,53.252],[14.343,53.049],[14.144,52.96],[14.124,52.851],[14.645,52.577],[14.545,52.382],[14.584,52.291],[14.712,52.236],[14.686,52.121],[14.696,52.107],[14.761,52.077],[14.586,51.804],[14.732,51.658],[14.71,51.53],[14.955,51.435],[15.022,51.237],[14.955,51.064],[14.759,50.81],[14.613,50.846],[14.629,50.921],[14.55,50.912],[14.574,50.975],[14.482,51.037],[14.288,51.037],[14.238,50.982],[14.382,50.921],[14.376,50.896],[14.347,50.88],[13.96,50.802],[13.835,50.724],[13.557,50.707],[13.448,50.597],[13.369,50.628],[13.16,50.497],[13.01,50.493],[12.953,50.404],[12.817,50.443],[12.51,50.389],[12.336,50.259],[12.3,50.161],[12.24,50.257],[12.076,50.315],[12.08,50.243],[12.247,50.045],[12.524,49.905],[12.384,49.743],[12.496,49.67],[12.644,49.429],[12.778,49.333],[13.0,49.295],[13.179,49.118],[13.3,49.094],[13.459,48.945],[13.609,48.946],[13.816,48.766]]],[[[14.21,53.938],[14.201,53.878],[13.84,53.85],[13.932,53.899],[13.904,53.995],[14.048,53.941],[14.051,54.005],[13.946,54.067],[13.891,54.01],[13.864,54.05],[13.774,54.023],[13.815,54.101],[13.753,54.153],[13.815,54.174],[14.21,53.938]]],[[[6.798,53.604],[6.722,53.591],[6.757,53.563],[6.66,53.599],[6.798,53.604]]],[[[7.517,53.762],[7.627,53.751],[7.482,53.727],[7.517,53.762]]],[[[11.376,53.982],[11.498,54.023],[11.468,53.971],[11.458,53.961],[11.376,53.982]]],[[[11.256,54.479],[11.314,54.414],[11.006,54.468],[11.121,54.536],[11.256,54.479]]],[[[13.698,54.392],[13.766,54.345],[13.723,54.278],[13.651,54.297],[13.712,54.332],[13.617,54.318],[13.691,54.352],[13.5,54.345],[13.36,54.275],[13.407,54.228],[13.115,54.338],[13.267,54.386],[13.157,54.427],[13.273,54.482],[13.143,54.543],[13.298,54.52],[13.369,54.585],[13.349,54.524],[13.377,54.565],[13.507,54.488],[13.521,54.571],[13.369,54.612],[13.253,54.565],[13.293,54.642],[13.231,54.653],[13.391,54.688],[13.419,54.688],[13.445,54.68],[13.383,54.636],[13.425,54.585],[13.671,54.566],[13.575,54.472],[13.698,54.392]]],[[[8.332,54.694],[8.382,54.639],[8.401,54.633],[8.33,54.631],[8.311,54.651],[8.292,54.667],[8.332,54.694]]],[[[8.498,54.756],[8.594,54.729],[8.566,54.688],[8.395,54.715],[8.498,54.756]]],[[[8.36,54.948],[8.355,54.913],[8.388,54.894],[8.437,54.887],[8.654,54.894],[8.307,54.865],[8.284,54.742],[8.298,54.913],[8.374,55.035],[8.416,55.065],[8.463,55.051],[8.402,55.049],[8.395,55.044],[8.422,55.042],[8.43,55.03],[8.36,54.948]]],[[[8.635,54.543],[8.699,54.559],[8.701,54.548],[8.641,54.492],[8.596,54.514],[8.635,54.543]]]]}},{"type":"Feature","properties":{"code":"EE"},"geometry":{"type":"MultiPolygon","coordinates":[[[[24.306,57.868],[24.464,58.072],[24.471,58.251],[24.551,58.334],[24.362,58.397],[24.243,58.28],[24.112,58.241],[23.98,58.318],[23.741,58.343],[23.679,58.524],[23.501,58.562],[23.498,58.697],[23.533,58.747],[23.803,58.731],[23.785,58.778],[23.874,58.772],[23.429,58.765],[23.526,58.82],[23.422,58.929],[23.628,58.979],[23.56,59.053],[23.614,59.011],[23.553,58.971],[23.408,59.026],[23.518,59.073],[23.471,59.212],[23.73,59.23],[23.757,59.284],[24.081,59.271],[24.035,59.389],[24.222,59.355],[24.163,59.402],[24.306,59.419],[24.334,59.471],[24.643,59.436],[24.675,59.496],[24.773,59.45],[24.803,59.571],[24.934,59.508],[25.146,59.539],[25.409,59.491],[25.544,59.535],[25.485,59.67],[25.677,59.566],[25.706,59.569],[25.719,59.588],[25.695,59.671],[25.826,59.575],[25.989,59.634],[26.091,59.586],[26.665,59.552],[26.938,59.45],[27.873,59.408],[28.019,59.482],[28.186,59.375],[27.882,59.276],[27.713,58.992],[27.478,58.875],[27.446,58.819],[27.411,58.755],[27.555,58.395],[27.495,58.221],[27.63,58.088],[27.665,57.918],[27.799,57.861],[27.525,57.807],[27.508,57.715],[27.391,57.68],[27.328,57.583],[27.353,57.528],[26.873,57.627],[26.5,57.516],[26.025,57.774],[26.015,57.843],[25.602,57.912],[25.282,58.073],[25.232,57.985],[25.094,58.067],[24.306,57.868]]],[[[23.231,58.505],[23.325,58.442],[23.157,58.478],[23.042,58.371],[22.955,58.381],[22.903,58.312],[22.721,58.27],[22.723,58.225],[22.535,58.254],[22.295,58.193],[22.203,57.994],[22.19,57.984],[22.048,57.915],[21.963,57.984],[22.203,58.148],[21.844,58.294],[21.908,58.299],[21.873,58.342],[22.011,58.354],[21.832,58.511],[21.996,58.513],[22.089,58.422],[22.188,58.543],[22.273,58.502],[22.288,58.569],[22.55,58.63],[22.648,58.587],[22.922,58.617],[23.231,58.505]]],[[[23.382,58.58],[23.362,58.532],[23.235,58.535],[23.059,58.603],[23.198,58.681],[23.288,58.666],[23.33,58.653],[23.382,58.58]]],[[[23.364,59.029],[23.385,58.981],[23.299,58.971],[23.163,58.969],[23.114,59.022],[23.364,59.029]]],[[[22.292,58.895],[22.056,58.953],[22.463,58.971],[22.64,59.087],[22.737,59.005],[22.837,59.009],[22.934,58.984],[23.041,58.841],[22.88,58.833],[22.845,58.777],[22.778,58.824],[22.655,58.703],[22.611,58.69],[22.556,58.687],[22.502,58.695],[22.463,58.716],[22.497,58.738],[22.43,58.852],[22.292,58.895]]],[[[24.516,59.598],[24.543,59.548],[24.516,59.544],[24.489,59.56],[24.516,59.598]]]]}},{"type":"Feature","properties":{"code":"LV"},"geometry":{"type":"MultiPolygon","coordinates":[[[[27.353,57.528],[27.528,57.528],[27.511,57.43],[27.84,57.291],[27.824,57.159],[27.682,57.104],[27.751,57.042],[27.628,56.844],[27.786,56.871],[27.914,56.82],[27.865,56.743],[27.883,56.725],[27.981,56.687],[28.011,56.588],[28.126,56.548],[28.093,56.502],[28.217,56.271],[28.149,56.142],[27.927,56.109],[27.645,55.923],[27.593,55.794],[26.981,55.827],[26.823,55.706],[26.481,55.678],[26.342,55.716],[26.28,55.743],[25.662,56.141],[25.073,56.198],[24.871,56.443],[24.481,56.269],[24.319,56.299],[24.139,56.257],[23.707,56.354],[23.288,56.373],[23.062,56.304],[22.925,56.412],[22.666,56.349],[22.094,56.417],[21.328,56.224],[21.19,56.084],[21.053,56.073],[20.973,56.232],[21.0,56.511],[21.031,56.408],[21.08,56.403],[20.992,56.549],[21.058,56.689],[21.053,56.829],[21.382,57.009],[21.434,57.306],[21.73,57.574],[22.484,57.742],[22.61,57.755],[22.591,57.645],[22.601,57.63],[22.656,57.586],[23.13,57.371],[23.261,57.099],[23.695,56.967],[23.953,57.013],[24.401,57.258],[24.306,57.868],[25.094,58.067],[25.217,57.985],[25.284,58.008],[25.282,58.073],[25.602,57.912],[26.015,57.843],[26.025,57.774],[26.5,57.516],[26.873,57.627],[27.353,57.528]]]]}},{"type":"Feature","properties":{"code":"SE"},"geometry":{"type":"MultiPolygon","coordinates":[[[[20.623,69.036],[20.911,68.981],[20.906,68.895],[22.072,68.477],[22.808,68.395],[23.067,68.29],[23.155,68.217],[23.166,68.122],[23.307,68.146],[23.383,68.051],[23.662,67.95],[23.481,67.865],[23.554,67.587],[23.431,67.486],[23.765,67.42],[23.786,67.338],[23.603,67.26],[23.581,67.153],[24.004,66.805],[23.892,66.751],[23.882,66.564],[23.652,66.459],[23.663,66.317],[23.724,66.207],[23.889,66.161],[24.02,66.049],[24.163,65.823],[23.926,65.76],[23.739,65.829],[23.47,65.833],[23.428,65.765],[23.374,65.823],[23.196,65.827],[23.238,65.769],[23.103,65.705],[22.653,65.908],[22.7,65.804],[22.664,65.758],[22.511,65.775],[22.518,65.823],[22.406,65.864],[22.326,65.837],[22.367,65.81],[22.319,65.802],[22.361,65.761],[22.326,65.736],[22.209,65.761],[22.388,65.673],[22.282,65.701],[22.285,65.632],[22.262,65.626],[22.189,65.624],[22.263,65.612],[22.301,65.612],[22.309,65.669],[22.38,65.634],[22.333,65.604],[22.405,65.542],[21.764,65.728],[22.203,65.549],[21.854,65.535],[22.032,65.467],[21.928,65.404],[21.489,65.393],[21.449,65.357],[21.702,65.286],[21.623,65.241],[21.346,65.373],[21.278,65.35],[21.61,65.169],[21.544,65.137],[21.586,65.069],[21.563,65.061],[21.479,65.062],[21.503,65.021],[21.378,64.96],[21.256,64.957],[21.243,64.953],[21.181,64.836],[21.037,64.833],[21.306,64.768],[21.229,64.748],[21.305,64.666],[21.144,64.733],[21.123,64.683],[21.353,64.57],[21.374,64.608],[21.486,64.583],[21.526,64.523],[21.347,64.532],[21.606,64.452],[21.373,64.33],[21.319,64.364],[21.333,64.315],[20.967,64.149],[20.897,63.984],[20.675,63.843],[20.675,63.789],[20.613,63.822],[20.543,63.775],[20.503,63.822],[20.414,63.768],[20.394,63.681],[20.325,63.754],[20.308,63.654],[20.284,63.733],[20.243,63.651],[20.035,63.657],[20.031,63.602],[19.887,63.603],[19.687,63.431],[19.446,63.561],[19.523,63.486],[19.461,63.469],[19.517,63.415],[19.293,63.467],[19.259,63.329],[19.133,63.308],[19.117,63.237],[19.097,63.238],[19.057,63.26],[19.112,63.22],[19.053,63.179],[18.907,63.267],[18.751,63.259],[18.894,63.198],[18.773,63.169],[18.753,63.208],[18.824,63.22],[18.729,63.232],[18.7,63.226],[18.756,63.157],[18.611,63.179],[18.564,63.178],[18.655,63.114],[18.557,63.117],[18.478,63.02],[18.404,63.056],[18.434,63.014],[18.242,63.0],[18.577,62.958],[18.403,62.965],[18.513,62.904],[18.472,62.902],[18.4,62.911],[18.474,62.877],[18.378,62.837],[18.207,62.869],[18.283,62.842],[18.195,62.777],[18.009,62.794],[18.146,62.822],[18.077,62.856],[17.935,62.817],[17.921,62.916],[17.831,63.0],[17.694,62.994],[17.818,62.942],[17.848,62.921],[17.995,62.728],[17.993,62.66],[17.872,62.671],[18.064,62.596],[18.042,62.592],[17.968,62.56],[17.937,62.616],[17.843,62.49],[17.671,62.489],[17.707,62.437],[17.576,62.44],[17.562,62.444],[17.427,62.541],[17.331,62.488],[17.381,62.333],[17.653,62.232],[17.509,62.218],[17.426,62.027],[17.46,62.003],[17.345,61.937],[17.337,61.824],[17.406,61.821],[17.399,61.722],[17.514,61.714],[17.496,61.635],[17.331,61.718],[17.351,61.677],[17.138,61.726],[17.269,61.691],[17.097,61.636],[17.226,61.622],[17.248,61.609],[17.056,61.582],[17.082,61.571],[17.187,61.561],[17.08,61.55],[17.166,61.527],[17.125,61.513],[17.169,61.441],[17.22,61.448],[17.104,61.399],[17.276,61.314],[17.097,61.321],[17.213,61.235],[17.152,61.204],[17.183,61.123],[17.171,61.115],[17.146,61.115],[17.2,61.096],[17.159,61.02],[17.248,61.012],[17.158,60.948],[17.336,60.767],[17.187,60.692],[17.34,60.623],[17.575,60.648],[17.659,60.608],[17.604,60.584],[17.671,60.504],[17.741,60.498],[17.816,60.585],[17.975,60.588],[17.967,60.512],[18.262,60.382],[18.207,60.355],[18.235,60.327],[18.428,60.349],[18.474,60.293],[18.427,60.286],[18.565,60.259],[18.605,60.238],[18.564,60.228],[18.401,60.26],[18.369,60.279],[18.317,60.321],[18.42,60.194],[18.549,60.174],[18.578,60.074],[18.578,60.142],[18.651,60.148],[18.735,60.115],[18.797,60.005],[18.753,60.082],[18.817,60.118],[18.903,59.947],[19.072,59.896],[19.035,59.835],[18.886,59.93],[18.924,59.852],[18.734,59.769],[19.074,59.75],[18.913,59.752],[18.714,59.673],[18.736,59.642],[18.64,59.584],[18.269,59.477],[18.307,59.397],[18.248,59.398],[18.188,59.407],[18.181,59.458],[18.009,59.409],[18.146,59.34],[18.095,59.327],[18.221,59.32],[18.255,59.363],[18.318,59.376],[18.47,59.337],[18.448,59.395],[18.496,59.395],[18.427,59.436],[18.485,59.434],[18.646,59.33],[18.291,59.323],[18.279,59.262],[18.412,59.215],[18.313,59.222],[18.424,59.144],[18.014,59.045],[17.893,58.861],[17.774,58.961],[17.774,58.886],[17.769,59.121],[17.71,59.053],[17.659,59.169],[17.577,58.957],[17.627,58.918],[17.536,58.902],[17.591,58.861],[17.447,58.895],[17.488,58.8],[17.46,58.791],[17.337,58.806],[17.358,58.751],[17.028,58.751],[17.146,58.697],[16.975,58.685],[17.036,58.641],[17.013,58.641],[16.924,58.625],[16.579,58.647],[16.234,58.669],[16.255,58.635],[16.179,58.635],[16.789,58.607],[16.94,58.491],[16.748,58.429],[16.413,58.477],[16.706,58.408],[16.775,58.34],[16.632,58.354],[16.698,58.302],[16.799,58.324],[16.707,58.278],[16.821,58.207],[16.777,58.131],[16.617,58.203],[16.755,58.025],[16.637,58.014],[16.735,57.972],[16.769,57.888],[16.611,57.895],[16.645,57.921],[16.515,57.999],[16.59,57.936],[16.573,57.894],[16.46,57.902],[16.707,57.751],[16.419,57.895],[16.715,57.703],[16.577,57.71],[16.631,57.629],[16.521,57.627],[16.515,57.566],[16.592,57.565],[16.629,57.557],[16.689,57.472],[16.469,57.275],[16.465,57.177],[16.583,57.045],[16.44,57.052],[16.468,56.949],[16.408,56.799],[16.472,56.777],[16.361,56.764],[16.372,56.661],[16.246,56.642],[16.038,56.255],[15.852,56.086],[15.789,56.106],[15.819,56.14],[15.827,56.159],[15.592,56.161],[15.586,56.209],[15.366,56.141],[15.295,56.188],[14.725,56.168],[14.682,56.117],[14.768,56.031],[14.497,56.04],[14.235,55.863],[14.196,55.726],[14.368,55.545],[14.181,55.391],[13.897,55.435],[13.381,55.346],[12.833,55.383],[12.829,55.4],[12.859,55.435],[12.986,55.448],[12.917,55.547],[13.055,55.694],[12.923,55.749],[12.926,55.834],[12.821,55.887],[12.451,56.304],[12.814,56.236],[12.829,56.279],[12.622,56.419],[12.657,56.455],[12.714,56.467],[12.833,56.443],[12.89,56.455],[12.934,56.547],[12.872,56.649],[12.732,56.647],[12.598,56.821],[12.356,56.924],[12.341,57.014],[12.149,57.188],[12.181,57.204],[12.191,57.213],[12.101,57.237],[12.157,57.243],[12.095,57.25],[12.144,57.31],[12.05,57.351],[12.109,57.394],[12.06,57.394],[12.059,57.459],[11.979,57.347],[11.903,57.394],[11.945,57.49],[11.917,57.621],[11.835,57.662],[11.924,57.703],[11.705,57.698],[11.81,57.781],[11.656,57.839],[11.759,57.902],[11.793,58.1],[11.89,58.217],[11.809,58.302],[11.826,58.317],[11.883,58.333],[11.506,58.243],[11.67,58.422],[11.589,58.401],[11.553,58.463],[11.522,58.336],[11.396,58.265],[11.443,58.306],[11.384,58.318],[11.449,58.342],[11.424,58.388],[11.346,58.346],[11.424,58.443],[11.221,58.346],[11.209,58.419],[11.294,58.47],[11.239,58.508],[11.286,58.58],[11.177,58.719],[11.233,58.808],[11.198,58.923],[11.108,58.954],[11.184,58.991],[11.115,59.008],[11.194,59.08],[11.22,59.09],[11.321,59.1],[11.438,58.991],[11.453,58.96],[11.452,58.896],[11.664,58.92],[11.812,59.25],[11.675,59.607],[11.897,59.714],[11.85,59.872],[12.144,59.898],[12.483,60.081],[12.511,60.118],[12.525,60.162],[12.492,60.312],[12.605,60.419],[12.594,60.515],[12.483,60.657],[12.377,60.754],[12.253,61.002],[12.704,61.046],[12.888,61.35],[12.614,61.547],[12.416,61.582],[12.162,61.725],[12.314,62.286],[12.091,62.586],[12.156,62.734],[12.097,62.887],[12.093,62.907],[12.104,62.923],[12.223,63.001],[12.06,63.205],[11.992,63.289],[12.205,63.455],[12.22,63.474],[12.219,63.497],[12.17,63.598],[12.755,63.991],[12.982,64.059],[13.234,64.091],[13.964,64.01],[13.982,64.02],[14.148,64.169],[14.097,64.465],[13.643,64.584],[14.311,65.084],[14.38,65.24],[14.514,65.318],[14.561,65.701],[14.649,65.802],[14.644,65.843],[14.541,66.125],[14.797,66.139],[15.053,66.153],[15.482,66.275],[15.426,66.491],[15.669,66.599],[16.039,66.888],[16.4,67.036],[16.438,67.2],[16.127,67.423],[16.181,67.496],[16.483,67.558],[16.783,67.897],[17.321,68.105],[17.921,67.973],[18.189,68.199],[18.136,68.396],[18.172,68.536],[18.189,68.538],[18.436,68.574],[18.482,68.562],[18.645,68.501],[18.7,68.496],[19.038,68.506],[20.01,68.364],[20.246,68.477],[19.962,68.541],[20.152,68.607],[20.237,68.659],[20.357,68.805],[20.349,68.893],[20.341,68.91],[20.102,69.022],[20.363,69.029],[20.623,69.036]]],[[[17.125,57.319],[16.899,57.038],[16.934,57.018],[16.637,56.56],[16.541,56.306],[16.428,56.218],[16.419,56.586],[16.621,56.872],[16.731,56.904],[16.966,57.305],[17.055,57.358],[17.125,57.319]]],[[[19.04,57.868],[19.085,57.826],[18.949,57.783],[18.941,57.73],[18.807,57.734],[18.765,57.627],[18.81,57.607],[18.773,57.472],[18.926,57.393],[18.68,57.31],[18.714,57.243],[18.406,57.143],[18.386,57.127],[18.455,57.127],[18.431,57.117],[18.36,57.096],[18.345,57.083],[18.338,57.031],[18.4,57.004],[18.312,56.948],[18.139,56.922],[18.29,57.093],[18.201,57.065],[18.228,57.134],[18.099,57.259],[18.179,57.38],[18.128,57.548],[18.678,57.914],[18.742,57.918],[18.803,57.826],[18.851,57.915],[19.04,57.868]]],[[[19.273,57.977],[19.339,57.964],[19.162,57.926],[19.13,57.847],[19.037,57.905],[19.098,57.977],[19.273,57.977]]],[[[11.739,58.059],[11.732,57.998],[11.595,57.936],[11.498,58.028],[11.739,58.059]]],[[[11.807,58.23],[11.805,58.126],[11.708,58.098],[11.585,58.123],[11.458,58.072],[11.407,58.131],[11.663,58.237],[11.686,58.291],[11.807,58.23]]],[[[19.332,58.368],[19.291,58.35],[19.25,58.343],[19.214,58.355],[19.188,58.395],[19.332,58.368]]],[[[18.43,59.258],[18.345,59.299],[18.612,59.258],[18.43,59.258]]],[[[18.55,60.327],[18.402,60.37],[18.379,60.508],[18.55,60.327]]],[[[18.485,59.098],[18.414,59.012],[18.344,59.026],[18.485,59.098]]],[[[18.676,59.34],[18.638,59.368],[18.698,59.374],[18.747,59.332],[18.678,59.3],[18.676,59.34]]],[[[18.107,59.385],[18.249,59.367],[18.166,59.341],[18.107,59.385]]],[[[18.657,59.507],[18.556,59.422],[18.511,59.483],[18.632,59.55],[18.739,59.54],[18.657,59.507]]],[[[18.996,59.81],[18.886,59.794],[18.959,59.864],[18.996,59.81]]],[[[18.724,60.197],[18.807,60.161],[18.724,60.155],[18.724,60.197]]],[[[15.705,56.116],[15.697,56.074],[15.642,56.105],[15.705,56.116]]],[[[16.892,58.334],[16.785,58.38],[16.86,58.4],[16.831,58.356],[16.892,58.334]]],[[[18.321,58.969],[18.316,58.927],[18.194,58.911],[18.321,58.969]]],[[[18.198,59.01],[18.051,58.961],[18.104,59.023],[18.198,59.01]]],[[[17.707,58.993],[17.691,58.902],[17.639,58.931],[17.652,59.072],[17.707,58.993]]],[[[18.125,62.688],[18.006,62.706],[18.041,62.755],[18.149,62.75],[18.125,62.688]]],[[[20.898,63.754],[20.948,63.775],[20.933,63.715],[20.865,63.683],[20.898,63.754]]],[[[22.154,65.43],[22.174,65.474],[22.233,65.424],[22.154,65.43]]],[[[22.219,65.507],[22.211,65.545],[22.359,65.504],[22.219,65.507]]],[[[22.578,65.583],[22.626,65.593],[22.641,65.589],[22.578,65.583]]],[[[22.963,65.716],[22.972,65.667],[22.882,65.72],[22.963,65.716]]],[[[23.797,65.754],[23.738,65.697],[23.7,65.707],[23.681,65.722],[23.797,65.754]]],[[[22.741,65.714],[22.747,65.77],[22.811,65.714],[22.741,65.714]]]]}},{"type":"Feature","properties":{"code":"FI"},"geometry":{"type":"MultiPolygon","coordinates":[[[[28.954,69.027],[28.41,68.899],[28.801,68.835],[28.448,68.53],[28.664,68.204],[29.331,68.073],[29.651,67.824],[29.714,67.793],[30.009,67.686],[29.916,67.508],[29.52,67.298],[29.052,66.908],[29.524,66.491],[29.651,66.288],[29.9,66.108],[30.112,65.712],[30.099,65.656],[29.703,65.629],[29.839,65.565],[29.726,65.492],[29.72,65.329],[29.615,65.269],[29.58,65.235],[29.833,65.205],[29.808,65.135],[29.85,65.122],[29.598,65.034],[29.588,64.991],[29.634,64.907],[29.698,64.839],[29.78,64.796],[30.119,64.768],[30.181,64.643],[29.955,64.569],[30.07,64.472],[30.032,64.397],[30.558,64.22],[30.552,64.022],[30.202,63.793],[29.981,63.742],[30.461,63.473],[31.204,63.213],[31.263,63.101],[31.57,62.906],[31.244,62.503],[30.648,62.193],[29.203,61.246],[28.798,61.097],[27.808,60.553],[27.74,60.574],[27.753,60.506],[27.718,60.488],[27.705,60.485],[27.508,60.514],[27.473,60.506],[27.507,60.457],[27.457,60.464],[27.232,60.512],[27.308,60.526],[27.215,60.585],[27.178,60.512],[27.033,60.542],[26.931,60.485],[26.962,60.447],[26.797,60.486],[26.701,60.42],[26.553,60.433],[26.475,60.487],[26.58,60.591],[26.753,60.574],[26.659,60.652],[26.466,60.508],[26.469,60.427],[26.342,60.376],[26.246,60.451],[26.273,60.402],[26.142,60.396],[25.917,60.485],[26.108,60.336],[26.04,60.3],[26.006,60.368],[25.842,60.402],[25.917,60.361],[25.883,60.307],[25.93,60.245],[25.754,60.321],[25.849,60.266],[25.736,60.247],[25.656,60.293],[25.65,60.3],[25.704,60.341],[25.69,60.363],[25.669,60.365],[25.526,60.327],[25.503,60.246],[25.314,60.273],[25.029,60.148],[24.999,60.213],[24.951,60.143],[24.807,60.191],[24.67,60.101],[24.554,60.156],[24.597,60.127],[24.54,60.088],[24.608,60.101],[24.594,60.06],[24.446,59.992],[24.446,60.048],[24.313,59.998],[24.368,60.074],[24.32,60.076],[23.799,59.957],[23.429,59.957],[23.546,60.074],[23.237,59.898],[23.251,59.841],[22.905,59.811],[23.247,59.922],[23.326,60.009],[23.223,59.93],[23.111,59.923],[23.111,59.974],[23.258,60.04],[23.035,60.045],[22.991,60.077],[23.025,60.135],[22.969,60.094],[22.875,60.15],[23.081,60.355],[22.525,60.204],[22.648,60.279],[22.459,60.265],[22.624,60.399],[22.292,60.383],[21.903,60.529],[21.844,60.516],[21.848,60.504],[21.874,60.478],[21.785,60.478],[21.841,60.629],[21.662,60.567],[21.612,60.489],[21.518,60.567],[21.579,60.567],[21.409,60.58],[21.47,60.608],[21.353,60.69],[21.426,60.68],[21.439,60.68],[21.422,60.725],[21.47,60.725],[21.47,60.731],[21.329,60.828],[21.319,60.865],[21.428,60.876],[21.353,60.903],[21.428,60.903],[21.299,61.06],[21.482,61.06],[21.443,61.17],[21.558,61.204],[21.476,61.246],[21.544,61.28],[21.524,61.375],[21.449,61.403],[21.572,61.416],[21.422,61.485],[21.556,61.475],[21.592,61.485],[21.482,61.568],[21.716,61.527],[21.538,61.65],[21.518,61.711],[21.586,61.698],[21.47,61.76],[21.414,61.907],[21.237,61.985],[21.289,62.122],[21.384,62.194],[21.374,62.267],[21.312,62.232],[21.339,62.356],[21.285,62.345],[21.271,62.349],[21.271,62.411],[21.216,62.335],[21.202,62.418],[21.134,62.404],[21.127,62.554],[21.194,62.601],[21.065,62.596],[21.079,62.678],[21.161,62.719],[21.114,62.781],[21.183,62.782],[21.243,62.869],[21.391,62.88],[21.463,62.951],[21.444,63.041],[21.688,63.027],[21.521,63.127],[21.552,63.178],[21.497,63.209],[21.742,63.2],[21.703,63.226],[21.895,63.26],[21.881,63.178],[21.906,63.175],[21.984,63.143],[21.972,63.165],[21.956,63.185],[22.025,63.239],[22.33,63.284],[22.352,63.306],[22.374,63.321],[22.196,63.431],[22.247,63.47],[22.402,63.418],[22.281,63.526],[22.407,63.457],[22.497,63.586],[22.503,63.587],[22.546,63.575],[22.538,63.588],[22.497,63.623],[22.589,63.703],[22.773,63.628],[22.902,63.706],[22.885,63.712],[22.833,63.726],[22.926,63.743],[22.903,63.795],[23.001,63.764],[22.991,63.815],[23.048,63.841],[23.063,63.853],[23.416,63.925],[23.385,63.938],[23.371,63.947],[23.396,64.056],[23.605,64.028],[23.574,64.107],[23.861,64.268],[23.943,64.247],[24.004,64.389],[24.344,64.531],[24.423,64.676],[24.588,64.781],[24.55,64.797],[24.538,64.805],[24.668,64.789],[24.736,64.855],[25.095,64.918],[25.225,64.823],[25.26,64.816],[25.355,64.83],[25.36,64.911],[25.191,64.967],[25.444,64.967],[25.355,65.097],[25.324,65.11],[25.211,65.124],[25.327,65.227],[25.28,65.261],[25.335,65.343],[25.266,65.378],[25.355,65.412],[25.324,65.507],[24.859,65.659],[24.676,65.635],[24.55,65.763],[24.711,65.912],[24.519,65.796],[24.405,65.769],[24.238,65.823],[24.206,65.779],[24.02,66.049],[23.689,66.257],[23.652,66.459],[23.882,66.564],[23.892,66.751],[24.004,66.805],[23.581,67.153],[23.603,67.26],[23.786,67.338],[23.765,67.42],[23.431,67.486],[23.554,67.587],[23.481,67.865],[23.662,67.95],[23.383,68.051],[23.307,68.146],[23.166,68.122],[23.155,68.217],[23.067,68.29],[22.808,68.395],[22.072,68.477],[20.906,68.895],[20.911,68.981],[20.623,69.036],[20.717,69.099],[20.744,69.104],[21.033,69.041],[21.072,69.037],[21.099,69.044],[21.156,69.088],[21.034,69.181],[21.098,69.239],[21.314,69.291],[21.639,69.271],[22.371,68.823],[22.397,68.732],[22.409,68.713],[23.071,68.681],[23.198,68.618],[23.735,68.715],[23.768,68.756],[23.787,68.8],[23.853,68.817],[23.929,68.816],[24.663,68.666],[24.905,68.557],[25.132,68.648],[25.201,68.813],[25.387,68.875],[25.434,68.884],[25.628,68.874],[25.796,68.993],[25.737,69.218],[25.877,69.371],[25.873,69.379],[25.841,69.418],[25.887,69.521],[26.004,69.587],[25.962,69.653],[26.005,69.689],[26.198,69.715],[26.534,69.925],[27.1,69.902],[27.312,69.929],[27.613,70.062],[27.867,70.075],[28.167,69.894],[28.189,69.886],[28.381,69.856],[28.38,69.822],[28.405,69.802],[29.147,69.664],[29.203,69.586],[29.345,69.464],[28.852,69.204],[28.828,69.091],[28.84,69.08],[28.954,69.027]]],[[[22.408,60.053],[22.449,60.066],[22.443,59.998],[22.383,59.993],[22.349,60.063],[22.408,60.053]]],[[[21.497,60.135],[21.654,60.156],[21.613,60.102],[21.497,60.135]]],[[[21.744,60.191],[21.888,60.176],[21.72,60.114],[21.744,60.191]]],[[[21.353,60.211],[21.449,60.184],[21.271,60.191],[21.353,60.211]]],[[[22.059,60.211],[22.009,60.137],[21.935,60.176],[22.059,60.211]]],[[[25.622,60.238],[25.582,60.296],[25.598,60.291],[25.684,60.245],[25.636,60.204],[25.622,60.238]]],[[[22.844,60.242],[22.949,60.27],[22.84,60.201],[22.847,60.111],[22.73,60.005],[22.655,60.032],[22.6,59.985],[22.593,60.047],[22.47,59.998],[22.474,60.091],[22.422,60.115],[22.6,60.142],[22.415,60.15],[22.448,60.221],[22.466,60.184],[22.844,60.242]]],[[[22.107,60.313],[22.34,60.286],[22.201,60.254],[22.08,60.269],[22.107,60.313]]],[[[21.998,60.334],[21.794,60.374],[21.846,60.41],[21.808,60.467],[21.932,60.423],[21.895,60.396],[21.998,60.334]]],[[[21.394,60.56],[21.482,60.526],[21.443,60.471],[21.329,60.525],[21.394,60.56]]],[[[21.299,60.567],[21.214,60.616],[21.271,60.643],[21.299,60.567]]],[[[21.264,60.882],[21.202,60.889],[21.299,60.896],[21.27,60.968],[21.374,60.93],[21.264,60.882]]],[[[21.422,63.247],[21.428,63.198],[21.243,63.151],[21.147,63.182],[21.079,63.288],[21.243,63.281],[21.195,63.226],[21.287,63.211],[21.422,63.247]]],[[[21.319,63.288],[21.229,63.329],[21.346,63.364],[21.374,63.349],[21.374,63.333],[21.358,63.316],[21.319,63.288]]],[[[24.993,65.055],[24.82,65.043],[24.802,65.024],[24.722,65.003],[24.827,64.973],[24.735,64.951],[24.563,65.037],[24.835,65.095],[24.993,65.055]]],[[[22.887,60.068],[22.918,60.069],[22.927,60.065],[22.872,60.006],[22.887,60.068]]],[[[22.313,60.192],[22.375,60.204],[22.386,60.195],[22.324,60.147],[22.313,60.192]]],[[[21.338,60.383],[21.355,60.352],[21.294,60.371],[21.338,60.383]]],[[[26.602,60.447],[26.636,60.415],[26.507,60.403],[26.602,60.447]]],[[[22.026,63.322],[22.047,63.282],[21.978,63.28],[22.026,63.322]]],[[[22.144,63.251],[22.069,63.319],[22.231,63.339],[22.209,63.273],[22.114,63.284],[22.144,63.251]]],[[[21.957,63.332],[21.996,63.385],[22.096,63.383],[21.957,63.332]]],[[[22.808,63.78],[22.74,63.721],[22.681,63.763],[22.808,63.78]]]]}},{"type":"Feature","properties":{"code":"LU"},"geometry":{"type":"MultiPolygon","coordinates":[[[[6.117,50.12],[6.096,50.049],[6.223,49.887],[6.503,49.796],[6.5,49.712],[6.351,49.567],[6.345,49.455],[6.194,49.499],[5.961,49.441],[5.791,49.538],[5.885,49.644],[5.728,49.8],[5.758,49.858],[5.719,49.891],[5.962,50.166],[6.117,50.12]]]]}},{"type":"Feature","properties":{"code":"BE"},"geometry":{"type":"MultiPolygon","coordinates":[[[[2.522,51.088],[3.349,51.375],[3.392,51.247],[3.61,51.29],[3.927,51.206],[4.169,51.297],[4.221,51.368],[4.308,51.271],[4.261,51.369],[4.411,51.357],[4.377,51.443],[4.429,51.462],[4.63,51.418],[4.779,51.495],[4.823,51.414],[4.762,51.413],[4.91,51.392],[5.028,51.477],[5.068,51.375],[5.215,51.259],[5.493,51.287],[5.568,51.208],[5.829,51.156],[5.846,51.103],[5.722,50.959],[5.764,50.959],[5.624,50.83],[5.707,50.754],[5.995,50.75],[6.159,50.622],[6.18,50.616],[6.249,50.614],[6.171,50.518],[6.337,50.481],[6.375,50.315],[6.157,50.223],[6.117,50.12],[5.962,50.166],[5.719,49.891],[5.758,49.858],[5.728,49.8],[5.885,49.644],[5.837,49.561],[5.456,49.499],[5.402,49.602],[5.298,49.613],[5.259,49.691],[4.849,49.794],[4.86,49.913],[4.784,49.958],[4.863,50.148],[4.682,50.084],[4.657,49.989],[4.465,49.936],[4.132,49.975],[4.21,50.06],[4.126,50.128],[4.198,50.258],[4.003,50.344],[3.755,50.346],[3.697,50.298],[3.608,50.477],[3.271,50.527],[3.232,50.696],[3.129,50.779],[2.887,50.697],[2.787,50.723],[2.587,50.845],[2.608,50.961],[2.522,51.088]]]]}},{"type":"Feature","properties":{"code":"ES"},"geometry":{"type":"MultiPolygon","coordinates":[[[[-5.341,35.847],[-5.399,35.925],[-5.283,35.912],[-5.341,35.847]]],[[[-2.948,35.33],[-2.913,35.277],[-2.943,35.268],[-2.964,35.286],[-2.967,35.314],[-2.948,35.33]]],[[[-1.794,43.386],[-1.747,43.291],[-1.404,43.243],[-1.488,43.082],[-1.475,43.06],[-1.457,43.045],[-1.366,43.033],[-1.286,43.109],[-1.294,43.055],[-1.15,43.006],[-0.76,42.947],[-0.569,42.773],[-0.323,42.843],[-0.161,42.795],[-0.039,42.685],[0.169,42.726],[0.275,42.669],[0.354,42.717],[0.657,42.688],[0.656,42.838],[0.813,42.832],[1.089,42.771],[1.151,42.707],[1.343,42.709],[1.429,42.595],[1.448,42.435],[1.707,42.503],[1.927,42.437],[2.009,42.347],[2.277,42.429],[2.515,42.326],[2.662,42.339],[2.69,42.406],[2.934,42.47],[3.181,42.431],[3.187,42.35],[3.318,42.323],[3.263,42.24],[3.119,42.218],[3.122,42.14],[3.214,42.068],[3.195,41.888],[2.933,41.712],[2.297,41.465],[2.131,41.304],[1.017,41.052],[0.714,40.815],[0.874,40.728],[0.872,40.707],[0.858,40.686],[0.677,40.565],[0.592,40.582],[0.733,40.634],[0.563,40.59],[-0.323,39.516],[-0.301,39.322],[-0.158,39.002],[0.235,38.742],[-0.51,38.338],[-0.519,38.299],[-0.504,38.207],[-0.624,38.162],[-0.761,37.796],[-0.788,37.823],[-0.856,37.742],[-0.705,37.62],[-0.925,37.556],[-1.088,37.581],[-1.106,37.532],[-1.324,37.562],[-1.671,37.363],[-1.813,37.207],[-1.9,36.941],[-2.127,36.736],[-2.362,36.837],[-2.561,36.819],[-2.718,36.682],[-2.933,36.752],[-3.33,36.745],[-3.415,36.696],[-3.839,36.752],[-4.403,36.724],[-4.659,36.508],[-4.903,36.507],[-5.187,36.411],[-5.339,36.141],[-5.425,36.18],[-5.439,36.063],[-5.612,36.006],[-5.917,36.184],[-6.037,36.19],[-6.31,36.534],[-6.231,36.473],[-6.179,36.514],[-6.395,36.637],[-6.433,36.751],[-6.346,36.795],[-6.338,36.884],[-6.195,36.932],[-6.345,36.901],[-6.388,36.808],[-6.5,36.96],[-6.893,37.167],[-6.911,37.189],[-6.918,37.215],[-6.853,37.295],[-6.963,37.234],[-6.928,37.172],[-7.101,37.224],[-7.414,37.193],[-7.514,37.601],[-7.307,37.851],[-7.273,37.977],[-7.123,38.04],[-7.024,38.023],[-6.948,38.197],[-7.104,38.174],[-7.359,38.446],[-7.27,38.738],[-7.056,38.855],[-6.973,39.014],[-7.016,39.097],[-7.157,39.105],[-7.168,39.171],[-7.258,39.211],[-7.327,39.341],[-7.314,39.457],[-7.516,39.594],[-7.557,39.68],[-7.021,39.694],[-6.88,40.009],[-7.043,40.181],[-6.794,40.356],[-6.857,40.442],[-6.813,40.515],[-6.85,40.582],[-6.816,40.857],[-6.942,41.016],[-6.804,41.064],[-6.647,41.268],[-6.496,41.295],[-6.321,41.411],[-6.206,41.57],[-6.366,41.664],[-6.542,41.659],[-6.577,41.74],[-6.524,41.867],[-6.609,41.962],[-7.051,41.942],[-7.145,41.987],[-7.219,41.879],[-7.443,41.806],[-7.469,41.853],[-7.606,41.826],[-7.607,41.873],[-7.722,41.899],[-7.897,41.858],[-7.903,41.887],[-7.906,41.914],[-8.049,41.816],[-8.18,41.811],[-8.23,41.905],[-8.095,42.041],[-8.204,42.07],[-8.222,42.154],[-8.627,42.051],[-8.881,41.893],[-8.895,42.119],[-8.827,42.131],[-8.847,42.161],[-8.623,42.347],[-8.868,42.256],[-8.831,42.342],[-8.655,42.441],[-8.844,42.404],[-8.943,42.469],[-8.827,42.462],[-8.823,42.57],[-8.731,42.688],[-8.785,42.641],[-8.84,42.682],[-9.026,42.543],[-9.071,42.596],[-9.03,42.708],[-8.888,42.831],[-9.1,42.758],[-9.135,42.918],[-9.196,42.949],[-9.273,42.893],[-9.28,43.055],[-9.108,43.141],[-9.218,43.155],[-8.933,43.235],[-8.988,43.283],[-8.83,43.341],[-8.693,43.293],[-8.388,43.386],[-8.354,43.349],[-8.331,43.406],[-8.21,43.313],[-8.175,43.416],[-8.305,43.451],[-8.169,43.492],[-8.333,43.472],[-8.313,43.567],[-8.052,43.643],[-8.059,43.709],[-7.909,43.766],[-7.847,43.718],[-7.909,43.67],[-7.858,43.668],[-7.686,43.793],[-7.692,43.727],[-7.367,43.68],[-7.271,43.561],[-7.044,43.559],[-7.045,43.479],[-6.944,43.566],[-6.069,43.57],[-5.907,43.588],[-5.852,43.663],[-5.677,43.561],[-5.394,43.555],[-5.414,43.507],[-5.3,43.538],[-4.482,43.384],[-3.827,43.497],[-3.797,43.493],[-3.769,43.479],[-3.844,43.445],[-3.811,43.425],[-3.579,43.518],[-3.432,43.467],[-3.502,43.431],[-3.461,43.412],[-3.008,43.321],[-3.029,43.376],[-2.947,43.431],[-2.769,43.453],[-2.691,43.368],[-2.661,43.412],[-2.128,43.287],[-1.794,43.386]]],[[[1.526,38.678],[1.581,38.653],[1.458,38.681],[1.383,38.642],[1.431,38.755],[1.526,38.678]]],[[[1.606,39.091],[1.623,39.029],[1.415,38.891],[1.404,38.857],[1.403,38.832],[1.217,38.885],[1.218,38.954],[1.301,38.968],[1.292,39.01],[1.293,39.033],[1.357,39.078],[1.606,39.091]]],[[[3.355,39.784],[3.474,39.75],[3.454,39.66],[3.253,39.386],[3.061,39.269],[2.959,39.363],[2.787,39.376],[2.744,39.523],[2.715,39.544],[2.682,39.559],[2.493,39.47],[2.351,39.576],[2.813,39.873],[3.179,39.969],[3.097,39.914],[3.207,39.893],[3.136,39.789],[3.224,39.75],[3.355,39.784]]],[[[4.303,39.926],[4.337,39.867],[4.248,39.816],[3.981,39.936],[3.831,39.936],[3.803,40.018],[4.105,40.079],[4.303,39.926]]],[[[2.985,39.166],[2.982,39.139],[2.962,39.116],[2.931,39.118],[2.914,39.152],[2.985,39.166]]]]}},{"type":"Feature","properties":{"code":"DK"},"geometry":{"type":"MultiPolygon","coordinates":[[[[8.661,54.896],[8.682,55.133],[8.576,55.144],[8.564,55.143],[8.499,55.066],[8.459,55.103],[8.489,55.197],[8.689,55.142],[8.618,55.438],[8.442,55.464],[8.313,55.583],[8.239,55.558],[8.313,55.469],[8.095,55.549],[8.182,55.729],[8.128,55.988],[8.194,55.812],[8.393,55.909],[8.282,56.076],[8.15,56.111],[8.135,55.994],[8.108,56.024],[8.122,56.552],[8.179,56.672],[8.22,56.709],[8.202,56.64],[8.307,56.554],[8.566,56.579],[8.637,56.48],[8.727,56.483],[8.763,56.563],[8.682,56.627],[8.917,56.709],[8.841,56.722],[8.956,56.803],[9.063,56.813],[9.176,56.709],[9.059,56.634],[9.061,56.566],[9.155,56.661],[9.276,56.633],[9.25,56.579],[9.326,56.53],[9.373,56.565],[9.294,56.561],[9.306,56.695],[9.169,56.689],[9.243,56.747],[9.175,56.806],[9.2,56.939],[9.437,57.024],[9.608,56.97],[9.689,57.039],[9.916,57.059],[9.796,57.106],[9.245,57.002],[9.226,57.007],[9.115,57.059],[8.68,56.953],[8.491,56.794],[8.476,56.716],[8.527,56.695],[8.408,56.689],[8.586,56.689],[8.608,56.631],[8.56,56.593],[8.302,56.764],[8.244,56.777],[8.246,56.704],[8.248,56.812],[8.618,57.123],[9.412,57.165],[9.498,57.197],[9.573,57.243],[9.967,57.591],[10.198,57.601],[10.539,57.744],[10.649,57.737],[10.43,57.571],[10.547,57.435],[10.539,57.237],[10.411,57.144],[10.347,57.01],[10.24,56.993],[9.995,57.093],[9.927,57.059],[10.002,57.084],[10.314,56.983],[10.266,56.908],[10.341,56.717],[9.806,56.64],[10.334,56.704],[10.34,56.62],[10.214,56.558],[10.183,56.47],[10.33,56.603],[10.47,56.521],[10.822,56.534],[10.964,56.448],[10.912,56.334],[10.755,56.229],[10.739,56.155],[10.629,56.238],[10.549,56.178],[10.548,56.101],[10.509,56.17],[10.355,56.202],[10.491,56.216],[10.505,56.278],[10.403,56.298],[10.22,56.148],[10.266,56.074],[10.231,56.017],[10.278,56.018],[10.182,55.834],[10.102,55.882],[9.867,55.852],[10.046,55.814],[10.017,55.766],[10.06,55.749],[10.005,55.701],[9.556,55.712],[9.854,55.627],[9.498,55.489],[9.66,55.478],[9.587,55.427],[9.71,55.249],[9.684,55.198],[9.486,55.156],[9.457,55.126],[9.56,55.085],[9.434,55.038],[9.731,54.995],[9.763,54.9],[9.703,54.886],[9.746,54.836],[9.623,54.865],[9.615,54.933],[9.437,54.81],[9.317,54.802],[8.904,54.898],[8.661,54.896]]],[[[11.845,54.732],[11.811,54.655],[11.474,54.626],[10.999,54.787],[11.108,54.832],[11.032,54.919],[11.232,54.961],[11.595,54.811],[11.573,54.848],[11.656,54.866],[11.649,54.914],[11.845,54.732]]],[[[10.45,54.9],[10.519,54.852],[10.383,54.831],[10.189,54.977],[10.45,54.9]]],[[[12.417,55.03],[12.505,55.02],[12.538,55.002],[12.543,54.951],[12.115,54.907],[12.177,54.989],[12.287,54.989],[12.251,55.061],[12.417,55.03]]],[[[10.011,54.976],[10.064,54.881],[9.954,54.863],[9.874,54.886],[9.992,54.873],[9.992,54.879],[9.944,54.904],[9.781,54.917],[9.758,54.982],[9.848,54.948],[9.799,55.017],[9.628,55.058],[9.793,55.081],[10.011,54.976]]],[[[10.855,55.044],[10.934,55.16],[10.957,55.154],[10.909,55.03],[10.694,54.735],[10.601,54.838],[10.724,54.886],[10.697,54.931],[10.855,55.044]]],[[[15.151,55.133],[15.073,54.992],[14.684,55.101],[14.761,55.309],[15.151,55.133]]],[[[8.476,55.345],[8.374,55.463],[8.463,55.427],[8.476,55.345]]],[[[10.666,55.064],[10.538,55.03],[10.066,55.092],[10.143,55.126],[10.156,55.14],[10.004,55.197],[10.026,55.126],[10.021,55.124],[9.986,55.128],[9.98,55.213],[9.884,55.253],[9.885,55.349],[9.703,55.462],[9.812,55.441],[9.713,55.491],[9.676,55.496],[10.308,55.618],[10.519,55.533],[10.42,55.459],[10.436,55.442],[10.472,55.443],[10.609,55.493],[10.567,55.524],[10.614,55.528],[10.628,55.614],[10.742,55.487],[10.554,55.443],[10.698,55.44],[10.834,55.29],[10.773,55.287],[10.815,55.214],[10.783,55.124],[10.666,55.064]]],[[[12.616,55.688],[12.674,55.606],[12.675,55.601],[12.556,55.55],[12.52,55.619],[12.616,55.688]]],[[[10.559,55.866],[10.544,55.998],[10.669,55.88],[10.582,55.76],[10.512,55.825],[10.559,55.866]]],[[[12.04,54.893],[12.17,54.838],[11.961,54.694],[11.949,54.569],[11.869,54.66],[11.91,54.722],[11.711,54.941],[11.883,54.982],[11.616,55.092],[11.827,55.051],[11.718,55.126],[11.807,55.147],[11.785,55.157],[11.729,55.155],[11.718,55.208],[11.261,55.201],[11.245,55.215],[11.239,55.242],[11.286,55.256],[11.162,55.319],[11.19,55.345],[11.088,55.359],[11.214,55.404],[11.164,55.502],[11.081,55.513],[11.132,55.595],[10.93,55.66],[10.93,55.668],[11.088,55.66],[10.875,55.743],[11.163,55.749],[11.122,55.737],[11.193,55.7],[11.352,55.756],[11.348,55.838],[11.478,55.842],[11.505,55.869],[11.511,55.908],[11.273,55.997],[11.599,55.942],[11.768,55.971],[11.744,55.904],[11.663,55.907],[11.718,55.811],[11.608,55.783],[11.739,55.797],[11.763,55.749],[11.657,55.731],[11.746,55.731],[11.78,55.66],[11.954,55.854],[11.935,55.934],[11.998,55.903],[12.052,55.737],[11.91,55.66],[12.001,55.699],[12.06,55.654],[12.095,55.729],[12.026,55.941],[11.866,55.973],[12.245,56.129],[12.622,56.044],[12.513,55.928],[12.602,55.709],[12.198,55.487],[12.435,55.364],[12.465,55.29],[12.183,55.227],[12.099,55.141],[12.015,55.167],[12.177,55.105],[12.118,55.074],[12.149,54.994],[11.897,54.995],[11.89,54.93],[12.04,54.893]]],[[[8.826,56.744],[8.658,56.678],[8.515,56.738],[8.669,56.826],[8.621,56.832],[8.652,56.894],[8.916,56.979],[8.9,56.875],[8.84,56.88],[8.881,56.805],[8.826,56.744]]],[[[11.142,57.332],[11.189,57.294],[11.067,57.291],[11.091,57.253],[11.029,57.202],[10.855,57.265],[11.142,57.332]]]]}},{"type":"Feature","properties":{"code":"RO"},"geometry":{"type":"MultiPolygon","coordinates":[[[[22.878,47.947],[22.924,48.005],[23.063,48.007],[23.139,48.098],[23.461,47.971],[23.78,47.988],[23.855,47.934],[24.009,47.961],[24.231,47.897],[24.542,47.944],[24.897,47.71],[25.08,47.743],[25.262,47.899],[26.173,47.993],[26.303,48.212],[26.689,48.275],[26.938,48.205],[27.169,47.983],[27.281,47.693],[27.473,47.492],[27.576,47.46],[27.572,47.375],[27.733,47.276],[27.844,47.114],[28.069,46.989],[28.234,46.662],[28.246,46.428],[28.109,46.234],[28.145,46.183],[28.083,46.015],[28.168,45.632],[28.062,45.594],[28.286,45.422],[28.33,45.323],[28.71,45.227],[28.803,45.244],[28.76,45.274],[28.79,45.321],[28.93,45.279],[29.322,45.444],[29.57,45.395],[29.65,45.346],[29.666,45.231],[29.624,45.21],[29.7,45.162],[29.618,44.861],[29.156,44.784],[29.001,44.689],[28.975,44.745],[29.139,44.804],[29.096,44.875],[29.06,44.832],[29.049,44.847],[29.044,44.866],[29.042,44.926],[29.052,44.945],[29.099,44.957],[29.111,44.97],[28.983,45.012],[28.869,44.943],[28.946,44.765],[28.798,44.72],[28.784,44.649],[28.898,44.717],[28.988,44.675],[28.758,44.627],[28.758,44.465],[28.925,44.621],[28.635,44.316],[28.672,43.997],[28.578,43.741],[28.435,43.735],[28.221,43.762],[28.015,43.83],[27.981,43.849],[27.912,43.993],[27.722,43.949],[27.633,44.03],[27.575,44.016],[27.384,44.015],[27.251,44.122],[27.027,44.177],[26.151,44.012],[25.781,43.732],[25.403,43.65],[24.964,43.75],[24.466,43.802],[24.159,43.753],[23.485,43.881],[22.889,43.84],[22.851,43.897],[22.875,43.972],[22.886,43.995],[23.023,44.032],[23.04,44.062],[23.031,44.093],[22.691,44.229],[22.682,44.305],[22.549,44.349],[22.477,44.464],[22.58,44.565],[22.765,44.583],[22.426,44.734],[22.127,44.503],[21.994,44.659],[21.656,44.688],[21.578,44.778],[21.396,44.79],[21.356,44.857],[21.536,44.889],[21.351,44.998],[21.493,45.145],[20.981,45.333],[20.767,45.479],[20.786,45.753],[20.688,45.743],[20.572,45.888],[20.354,45.977],[20.243,46.108],[20.469,46.174],[20.664,46.138],[20.799,46.268],[21.033,46.231],[21.144,46.284],[21.179,46.384],[21.281,46.416],[21.274,46.438],[21.245,46.477],[21.301,46.604],[21.502,46.704],[21.503,46.805],[21.671,46.993],[21.633,47.023],[22.002,47.394],[22.008,47.517],[22.162,47.586],[22.273,47.724],[22.454,47.787],[22.638,47.772],[22.878,47.947]]]]}},{"type":"Feature","properties":{"code":"HU"},"geometry":{"type":"MultiPolygon","coordinates":[[[[22.878,47.947],[22.638,47.772],[22.454,47.787],[22.273,47.724],[22.162,47.586],[22.008,47.517],[22.002,47.394],[21.633,47.023],[21.671,46.993],[21.503,46.805],[21.502,46.704],[21.301,46.604],[21.245,46.477],[21.274,46.438],[21.281,46.416],[21.196,46.398],[21.144,46.284],[21.051,46.236],[20.82,46.272],[20.664,46.138],[20.469,46.174],[20.243,46.108],[20.098,46.155],[19.55,46.164],[19.263,45.981],[19.088,46.019],[18.982,45.922],[18.656,45.908],[18.404,45.742],[17.858,45.772],[17.657,45.845],[17.591,45.936],[17.345,45.956],[17.209,46.117],[16.975,46.211],[16.838,46.382],[16.515,46.502],[16.368,46.643],[16.411,46.668],[16.314,46.743],[16.325,46.839],[16.094,46.863],[16.275,47.004],[16.486,46.999],[16.425,47.024],[16.493,47.049],[16.454,47.082],[16.51,47.138],[16.413,47.187],[16.473,47.277],[16.434,47.397],[16.641,47.453],[16.689,47.538],[16.63,47.622],[16.408,47.661],[16.568,47.754],[16.797,47.675],[17.075,47.708],[17.004,47.863],[17.185,48.02],[17.338,47.999],[17.573,47.83],[17.826,47.75],[18.693,47.778],[18.816,47.833],[18.778,47.851],[18.749,47.871],[18.743,47.971],[18.838,48.04],[19.428,48.086],[19.514,48.204],[19.531,48.211],[19.623,48.227],[19.929,48.13],[20.135,48.247],[20.324,48.28],[20.482,48.526],[20.8,48.569],[21.109,48.489],[21.425,48.561],[21.592,48.493],[21.759,48.334],[22.272,48.403],[22.257,48.373],[22.257,48.357],[22.357,48.243],[22.481,48.243],[22.605,48.097],[22.801,48.091],[22.878,47.947]]]]}},{"type":"Feature","properties":{"code":"SK"},"geometry":{"type":"MultiPolygon","coordinates":[[[[22.54,49.072],[22.369,48.856],[22.31,48.682],[22.139,48.57],[22.096,48.379],[21.728,48.341],[21.592,48.493],[21.425,48.561],[21.109,48.489],[20.8,48.569],[20.511,48.534],[20.324,48.28],[20.135,48.247],[19.929,48.13],[19.623,48.227],[19.531,48.211],[19.514,48.204],[19.428,48.086],[18.838,48.04],[18.743,47.971],[18.749,47.871],[18.778,47.851],[18.816,47.833],[18.693,47.778],[17.742,47.765],[17.338,47.999],[17.07,48.036],[17.08,48.098],[16.844,48.366],[17.025,48.746],[17.167,48.86],[17.535,48.813],[17.727,48.863],[17.879,48.934],[17.914,49.01],[18.076,49.047],[18.161,49.259],[18.385,49.342],[18.536,49.482],[18.932,49.504],[18.962,49.389],[19.142,49.394],[19.234,49.507],[19.443,49.602],[19.627,49.402],[19.769,49.393],[19.809,49.271],[19.748,49.206],[19.761,49.194],[19.786,49.188],[19.938,49.225],[20.05,49.173],[20.136,49.309],[20.318,49.392],[20.69,49.401],[20.919,49.29],[21.073,49.357],[21.054,49.414],[21.194,49.401],[21.261,49.449],[21.62,49.423],[21.758,49.349],[21.82,49.377],[21.964,49.309],[22.041,49.197],[22.54,49.072]]]]}},{"type":"Feature","properties":{"code":"PL"},"geometry":{"type":"MultiPolygon","coordinates":[[[[18.833,49.51],[18.788,49.669],[18.618,49.714],[18.559,49.907],[18.292,49.908],[18.002,50.047],[18.032,50.003],[17.839,49.974],[17.732,50.095],[17.633,50.106],[17.589,50.163],[17.748,50.218],[17.708,50.311],[17.424,50.241],[17.188,50.378],[16.893,50.433],[16.866,50.422],[16.866,50.408],[17.015,50.218],[16.818,50.187],[16.661,50.093],[16.344,50.37],[16.2,50.406],[16.426,50.568],[16.417,50.587],[16.332,50.644],[15.982,50.604],[15.971,50.679],[15.848,50.675],[15.792,50.743],[15.356,50.775],[15.256,50.9],[15.27,50.953],[15.144,51.012],[14.961,50.993],[14.982,50.859],[14.81,50.858],[14.955,51.064],[15.019,51.272],[14.945,51.449],[14.71,51.53],[14.732,51.658],[14.586,51.804],[14.761,52.077],[14.696,52.107],[14.686,52.121],[14.712,52.236],[14.584,52.291],[14.545,52.382],[14.645,52.577],[14.124,52.851],[14.144,52.96],[14.343,53.049],[14.442,53.252],[14.264,53.7],[14.294,53.749],[14.591,53.598],[14.624,53.653],[14.545,53.704],[14.624,53.77],[14.631,53.852],[14.587,53.813],[14.432,53.906],[14.319,53.818],[14.175,53.906],[15.86,54.25],[16.179,54.263],[16.215,54.3],[16.192,54.3],[16.138,54.29],[16.324,54.35],[16.282,54.359],[16.324,54.401],[16.57,54.557],[16.94,54.606],[17.036,54.667],[17.337,54.749],[18.152,54.838],[18.317,54.838],[18.34,54.833],[18.752,54.69],[18.818,54.598],[18.708,54.701],[18.456,54.788],[18.413,54.732],[18.523,54.647],[18.588,54.434],[18.886,54.35],[19.377,54.378],[19.61,54.457],[22.698,54.343],[22.838,54.401],[23.449,54.155],[23.591,53.611],[23.894,53.152],[23.859,53.068],[23.911,53.005],[23.922,52.743],[23.909,52.7],[23.869,52.67],[23.392,52.51],[23.166,52.289],[23.19,52.241],[23.488,52.182],[23.637,52.084],[23.676,51.994],[23.595,51.843],[23.618,51.787],[23.552,51.737],[23.543,51.593],[23.698,51.404],[23.635,51.305],[23.864,51.148],[23.979,50.938],[24.143,50.856],[23.958,50.808],[24.081,50.713],[24.108,50.541],[24.011,50.493],[23.981,50.405],[23.682,50.368],[23.101,49.957],[22.666,49.567],[22.738,49.275],[22.682,49.161],[22.853,49.085],[22.855,48.994],[22.041,49.197],[21.928,49.331],[21.601,49.426],[21.069,49.419],[21.054,49.414],[21.033,49.4],[21.073,49.357],[20.919,49.29],[20.69,49.401],[20.318,49.392],[20.136,49.309],[20.05,49.173],[19.938,49.225],[19.761,49.194],[19.809,49.271],[19.769,49.393],[19.627,49.402],[19.457,49.598],[19.234,49.507],[19.142,49.394],[18.962,49.389],[18.961,49.493],[18.932,49.504],[18.833,49.51]]]]}},{"type":"Feature","properties":{"code":"IE"},"geometry":{"type":"MultiPolygon","coordinates":[[[[-7.247,55.069],[-7.405,55.004],[-7.543,54.742],[-7.93,54.697],[-7.708,54.604],[-8.174,54.462],[-7.88,54.287],[-7.856,54.211],[-7.327,54.114],[-7.153,54.224],[-7.192,54.335],[-7.018,54.413],[-6.88,54.342],[-6.882,54.277],[-6.788,54.203],[-6.64,54.168],[-6.673,54.068],[-6.657,54.061],[-6.631,54.042],[-6.378,54.063],[-6.355,54.111],[-6.107,54.014],[-6.161,53.974],[-6.36,54.016],[-6.378,53.935],[-6.243,53.865],[-6.23,53.657],[-6.077,53.555],[-6.133,53.461],[-6.195,53.461],[-6.062,53.367],[-6.218,53.347],[-6.097,53.286],[-6.03,53.111],[-6.052,53.009],[-5.994,52.957],[-6.13,52.816],[-6.215,52.666],[-6.209,52.546],[-6.366,52.344],[-6.496,52.364],[-6.409,52.289],[-6.397,52.298],[-6.373,52.323],[-6.318,52.241],[-6.347,52.197],[-6.597,52.18],[-6.806,52.213],[-6.764,52.261],[-6.932,52.125],[-6.904,52.172],[-6.997,52.289],[-6.955,52.179],[-7.017,52.138],[-7.106,52.131],[-7.106,52.173],[-7.6,52.101],[-7.627,52.063],[-7.545,52.055],[-7.59,51.991],[-7.723,51.945],[-7.85,51.98],[-7.922,51.912],[-7.891,51.882],[-8.021,51.824],[-8.246,51.803],[-8.187,51.893],[-8.409,51.892],[-8.298,51.83],[-8.297,51.766],[-8.484,51.678],[-8.558,51.706],[-8.498,51.693],[-8.532,51.611],[-8.758,51.645],[-8.69,51.631],[-8.696,51.577],[-9.121,51.563],[-9.224,51.487],[-9.381,51.474],[-9.32,51.535],[-9.402,51.501],[-9.443,51.56],[-9.82,51.446],[-9.834,51.487],[-9.546,51.611],[-9.848,51.549],[-9.459,51.684],[-9.443,51.72],[-9.56,51.762],[-9.546,51.72],[-9.627,51.685],[-10.156,51.583],[-9.981,51.732],[-9.581,51.878],[-10.136,51.741],[-10.13,51.754],[-10.224,51.782],[-10.186,51.79],[-10.177,51.814],[-10.194,51.839],[-10.235,51.851],[-10.341,51.788],[-10.396,51.885],[-10.254,51.909],[-10.307,51.953],[-10.266,51.988],[-9.758,52.152],[-10.437,52.097],[-10.461,52.18],[-10.372,52.176],[-10.367,52.228],[-10.172,52.287],[-10.166,52.235],[-10.101,52.241],[-10.06,52.31],[-9.947,52.238],[-9.738,52.248],[-9.869,52.273],[-9.834,52.375],[-9.95,52.412],[-9.635,52.474],[-9.683,52.495],[-9.648,52.57],[-9.272,52.577],[-8.751,52.673],[-8.961,52.694],[-8.943,52.775],[-9.147,52.624],[-9.286,52.591],[-9.333,52.598],[-9.279,52.639],[-9.434,52.612],[-9.581,52.666],[-9.553,52.639],[-9.707,52.58],[-9.936,52.557],[-9.499,52.753],[-9.354,52.933],[-9.478,52.94],[-9.272,53.147],[-9.073,53.118],[-9.128,53.159],[-8.936,53.146],[-8.895,53.221],[-9.046,53.221],[-8.943,53.262],[-8.943,53.269],[-9.022,53.275],[-9.512,53.228],[-9.555,53.291],[-9.612,53.236],[-9.617,53.321],[-9.561,53.341],[-9.601,53.365],[-9.59,53.372],[-9.553,53.385],[-9.635,53.33],[-9.653,53.393],[-9.807,53.302],[-9.902,53.324],[-9.799,53.42],[-9.961,53.38],[-10.177,53.413],[-10.012,53.482],[-10.18,53.555],[-9.697,53.598],[-9.908,53.646],[-9.908,53.762],[-9.566,53.796],[-9.622,53.817],[-9.56,53.865],[-9.944,53.879],[-9.916,53.954],[-9.788,53.916],[-9.899,54.025],[-9.834,54.112],[-9.971,54.079],[-9.908,54.118],[-10.011,54.218],[-10.087,54.159],[-10.067,54.095],[-10.117,54.096],[-10.06,54.222],[-10.115,54.235],[-9.998,54.304],[-9.881,54.263],[-9.977,54.242],[-9.91,54.204],[-9.844,54.277],[-9.765,54.256],[-9.846,54.321],[-9.844,54.329],[-9.786,54.338],[-9.268,54.304],[-9.141,54.146],[-9.051,54.289],[-8.676,54.271],[-8.511,54.208],[-8.621,54.256],[-8.47,54.277],[-8.57,54.306],[-8.519,54.327],[-8.664,54.359],[-8.474,54.43],[-8.467,54.475],[-8.21,54.502],[-8.271,54.524],[-8.121,54.647],[-8.302,54.64],[-8.457,54.565],[-8.385,54.606],[-8.419,54.641],[-8.673,54.619],[-8.798,54.692],[-8.637,54.768],[-8.457,54.756],[-8.53,54.788],[-8.408,54.763],[-8.558,54.818],[-8.491,54.852],[-8.326,54.832],[-8.381,54.856],[-8.337,54.904],[-8.451,54.922],[-8.367,54.948],[-8.457,55.003],[-8.347,55.064],[-8.32,55.034],[-8.278,55.161],[-8.141,55.161],[-8.156,55.124],[-7.977,55.222],[-8.004,55.174],[-7.909,55.188],[-7.856,55.139],[-7.866,55.215],[-7.799,55.256],[-7.816,55.195],[-7.718,55.167],[-7.703,55.099],[-7.695,55.207],[-7.788,55.219],[-7.644,55.273],[-7.526,55.116],[-7.641,55.051],[-7.562,55.045],[-7.661,54.958],[-7.456,55.056],[-7.463,55.143],[-7.55,55.215],[-7.524,55.29],[-7.257,55.284],[-7.384,55.386],[-6.94,55.239],[-7.247,55.069]]],[[[-9.663,53.275],[-9.638,53.251],[-9.658,53.233],[-9.692,53.226],[-9.71,53.239],[-9.663,53.275]]],[[[-9.964,53.954],[-9.923,53.954],[-9.958,53.881],[-10.056,53.914],[-10.067,53.968],[-10.266,53.982],[-9.976,54.021],[-9.964,53.954]]],[[[-8.525,55.01],[-8.484,54.976],[-8.566,54.976],[-8.525,55.01]]]]}},{"type":"Feature","properties":{"code":"GR"},"geometry":{"type":"MultiPolygon","coordinates":[[[[20.965,40.849],[21.405,40.909],[21.582,40.866],[21.766,40.924],[21.909,41.097],[22.048,41.152],[22.451,41.114],[22.645,41.18],[22.705,41.14],[22.781,41.335],[23.157,41.316],[23.288,41.398],[23.612,41.371],[23.895,41.464],[24.035,41.451],[24.047,41.526],[24.17,41.512],[24.233,41.562],[24.296,41.515],[24.51,41.562],[24.58,41.441],[24.774,41.348],[24.886,41.401],[25.286,41.239],[25.551,41.316],[25.882,41.304],[26.121,41.358],[26.176,41.432],[26.163,41.529],[26.048,41.689],[26.226,41.75],[26.595,41.612],[26.636,41.4],[26.61,41.331],[26.54,41.352],[26.321,41.246],[26.359,40.965],[26.082,40.736],[26.006,40.804],[26.054,40.831],[25.538,40.87],[25.181,40.943],[25.138,41.01],[25.057,41.009],[25.039,41.006],[24.802,40.853],[24.629,40.859],[24.505,40.962],[24.392,40.936],[24.313,40.88],[24.341,40.831],[24.211,40.773],[24.11,40.728],[23.842,40.783],[23.732,40.752],[23.7,40.674],[23.915,40.539],[23.823,40.507],[23.868,40.414],[24.002,40.386],[24.011,40.449],[24.394,40.152],[24.3,40.128],[24.169,40.275],[23.937,40.365],[23.73,40.359],[23.716,40.255],[23.991,40.119],[23.991,39.954],[23.827,40.009],[23.675,40.218],[23.438,40.279],[23.34,40.228],[23.364,40.15],[23.748,39.93],[23.361,39.961],[23.299,40.235],[22.888,40.386],[22.822,40.502],[22.983,40.553],[22.91,40.645],[22.579,40.468],[22.661,40.369],[22.553,40.167],[22.571,40.054],[22.708,39.961],[22.939,39.581],[23.097,39.502],[23.344,39.18],[23.052,39.098],[23.217,39.18],[23.135,39.297],[22.936,39.361],[22.943,39.303],[22.843,39.288],[22.826,39.221],[22.998,39.07],[22.964,39.009],[23.073,39.036],[22.792,38.878],[22.622,38.914],[22.525,38.858],[23.042,38.747],[23.105,38.638],[23.187,38.686],[23.306,38.653],[23.333,38.604],[23.285,38.556],[23.382,38.535],[23.335,38.504],[23.567,38.501],[23.673,38.356],[23.951,38.291],[24.081,38.166],[23.989,38.123],[24.046,37.906],[24.042,37.901],[24.012,37.892],[24.087,37.785],[24.033,37.652],[23.95,37.677],[23.866,37.808],[23.779,37.802],[23.697,37.94],[23.561,37.973],[23.575,38.047],[23.409,37.974],[23.015,37.925],[22.995,37.882],[23.182,37.809],[23.121,37.741],[23.176,37.72],[23.169,37.614],[23.337,37.535],[23.312,37.617],[23.399,37.638],[23.395,37.515],[23.526,37.439],[23.263,37.401],[23.23,37.375],[23.278,37.35],[23.169,37.3],[23.073,37.355],[23.132,37.449],[23.005,37.46],[22.922,37.54],[22.854,37.515],[22.778,37.597],[22.726,37.566],[22.758,37.398],[22.907,37.194],[22.903,37.121],[22.982,37.083],[23.114,36.781],[23.031,36.726],[23.036,36.649],[23.196,36.433],[22.972,36.52],[22.884,36.654],[22.815,36.671],[22.787,36.793],[22.686,36.809],[22.623,36.803],[22.577,36.783],[22.553,36.651],[22.484,36.607],[22.491,36.391],[22.355,36.512],[22.388,36.706],[22.222,36.898],[22.138,36.917],[22.153,37.021],[21.943,36.993],[21.922,36.863],[21.97,36.795],[21.883,36.727],[21.823,36.809],[21.707,36.818],[21.71,36.943],[21.57,37.116],[21.568,37.156],[21.574,37.192],[21.696,37.316],[21.675,37.396],[21.55,37.561],[21.402,37.655],[21.312,37.638],[21.285,37.785],[21.106,37.878],[21.134,37.946],[21.326,38.021],[21.284,38.015],[21.374,38.221],[21.622,38.155],[21.849,38.341],[22.68,38.067],[22.867,37.94],[22.975,37.979],[22.875,38.049],[23.173,38.079],[23.223,38.159],[22.806,38.227],[22.646,38.39],[22.563,38.294],[22.402,38.453],[22.382,38.343],[22.189,38.323],[21.958,38.412],[21.518,38.296],[21.428,38.331],[21.49,38.309],[21.49,38.358],[21.377,38.399],[21.323,38.496],[21.337,38.396],[21.156,38.304],[21.085,38.344],[21.14,38.399],[21.087,38.41],[21.096,38.532],[21.031,38.511],[20.988,38.664],[20.914,38.686],[20.86,38.804],[20.773,38.761],[20.729,38.81],[20.805,38.868],[20.77,38.959],[21.027,38.933],[21.085,38.864],[21.102,38.911],[21.177,38.876],[21.16,38.998],[21.136,39.023],[21.085,39.063],[21.058,39.009],[20.901,39.077],[20.845,39.037],[20.822,39.114],[20.743,39.029],[20.832,38.964],[20.735,38.95],[20.687,39.072],[20.479,39.225],[20.482,39.283],[20.325,39.304],[20.236,39.399],[20.216,39.44],[20.267,39.447],[20.216,39.495],[20.264,39.509],[20.134,39.53],[20.182,39.624],[20.0,39.694],[20.246,39.663],[20.299,39.728],[20.28,39.804],[20.397,39.818],[20.298,39.987],[20.648,40.094],[20.771,40.422],[20.937,40.473],[21.019,40.559],[21.035,40.659],[20.944,40.765],[20.965,40.849]]],[[[24.128,34.855],[24.135,34.815],[24.046,34.849],[24.128,34.855]]],[[[26.976,35.431],[27.007,35.398],[26.848,35.372],[26.976,35.431]]],[[[26.321,35.315],[26.266,35.26],[26.321,35.198],[26.278,35.1],[26.147,35.002],[25.985,35.039],[25.019,34.932],[24.739,34.932],[24.743,35.077],[24.402,35.191],[23.683,35.226],[23.518,35.294],[23.58,35.576],[23.6,35.603],[23.605,35.613],[23.62,35.524],[23.718,35.513],[23.742,35.687],[23.817,35.535],[24.025,35.521],[24.082,35.59],[24.183,35.586],[24.183,35.513],[24.072,35.498],[24.252,35.479],[24.265,35.37],[24.34,35.348],[24.721,35.427],[24.971,35.425],[25.077,35.344],[25.376,35.343],[25.454,35.294],[25.766,35.336],[25.713,35.183],[25.795,35.115],[26.061,35.233],[26.179,35.207],[26.321,35.315]]],[[[27.212,35.521],[27.232,35.472],[27.136,35.404],[27.068,35.589],[27.157,35.801],[27.221,35.829],[27.157,35.634],[27.212,35.521]]],[[[23.012,36.308],[23.104,36.237],[22.991,36.137],[22.909,36.206],[22.9,36.328],[22.945,36.389],[23.012,36.308]]],[[[28.24,36.433],[28.062,36.117],[28.09,36.055],[27.993,36.062],[27.827,35.914],[27.733,35.915],[27.757,36.084],[27.684,36.158],[27.9,36.34],[28.24,36.433]]],[[[25.382,36.48],[25.479,36.424],[25.465,36.342],[25.362,36.357],[25.437,36.391],[25.382,36.48]]],[[[27.397,36.439],[27.445,36.405],[27.378,36.382],[27.297,36.465],[27.397,36.439]]],[[[26.362,36.638],[26.466,36.583],[26.301,36.513],[26.261,36.588],[26.404,36.59],[26.362,36.638]]],[[[27.87,36.59],[27.843,36.528],[27.76,36.576],[27.842,36.645],[27.815,36.61],[27.87,36.59]]],[[[25.146,36.72],[25.183,36.706],[25.067,36.638],[25.146,36.72]]],[[[24.474,36.747],[24.513,36.764],[24.533,36.768],[24.538,36.681],[24.327,36.651],[24.354,36.754],[24.427,36.699],[24.469,36.715],[24.409,36.761],[24.474,36.747]]],[[[25.273,36.72],[25.307,36.795],[25.409,36.712],[25.373,36.654],[25.338,36.668],[25.273,36.72]]],[[[24.608,36.836],[24.573,36.782],[24.521,36.817],[24.608,36.836]]],[[[27.281,36.908],[27.356,36.863],[26.992,36.754],[26.973,36.679],[26.918,36.716],[27.061,36.839],[27.281,36.908]]],[[[26.006,36.939],[26.073,36.892],[25.88,36.795],[25.739,36.795],[25.845,36.809],[26.006,36.939]]],[[[25.081,36.953],[25.026,37.008],[25.073,37.042],[25.081,36.953]]],[[[24.704,37.035],[24.766,36.949],[24.711,36.904],[24.642,37.028],[24.704,37.035]]],[[[26.912,36.946],[26.954,37.028],[26.89,37.09],[27.044,36.996],[27.04,36.945],[26.912,36.946]]],[[[25.28,37.049],[25.188,36.985],[25.103,37.013],[25.239,37.152],[25.293,37.152],[25.28,37.049]]],[[[25.526,37.196],[25.592,37.143],[25.581,37.018],[25.45,36.918],[25.342,37.083],[25.526,37.196]]],[[[24.444,37.179],[24.521,37.204],[24.532,37.13],[24.423,37.124],[24.444,37.179]]],[[[23.128,37.288],[23.162,37.244],[23.094,37.275],[23.128,37.288]]],[[[24.368,37.412],[24.436,37.487],[24.483,37.412],[24.368,37.31],[24.368,37.412]]],[[[25.395,37.418],[25.383,37.42],[25.307,37.412],[25.313,37.488],[25.463,37.47],[25.395,37.418]]],[[[24.943,37.435],[24.964,37.402],[24.882,37.364],[24.895,37.51],[24.943,37.435]]],[[[23.477,37.556],[23.526,37.522],[23.436,37.522],[23.477,37.556]]],[[[25.091,37.583],[24.998,37.682],[25.259,37.59],[25.216,37.533],[25.091,37.583]]],[[[24.375,37.686],[24.403,37.656],[24.396,37.625],[24.275,37.532],[24.289,37.645],[24.375,37.686]]],[[[26.362,37.686],[26.231,37.571],[25.976,37.516],[26.074,37.638],[26.362,37.686]]],[[[23.546,37.774],[23.484,37.679],[23.424,37.762],[23.426,37.768],[23.546,37.774]]],[[[27.048,37.727],[26.797,37.645],[26.708,37.714],[26.598,37.677],[26.58,37.741],[26.806,37.815],[26.966,37.748],[26.945,37.789],[27.068,37.774],[27.048,37.727]]],[[[20.901,37.792],[20.996,37.699],[20.894,37.733],[20.815,37.652],[20.619,37.864],[20.709,37.925],[20.901,37.792]]],[[[24.992,37.768],[24.958,37.686],[24.716,37.879],[24.694,37.966],[24.779,38.0],[24.848,37.915],[24.875,37.906],[24.954,37.906],[24.992,37.768]]],[[[23.408,37.899],[23.498,37.967],[23.429,37.988],[23.573,37.953],[23.408,37.899]]],[[[20.734,38.062],[20.51,38.111],[20.445,38.276],[20.425,38.175],[20.345,38.182],[20.4,38.364],[20.479,38.309],[20.53,38.337],[20.538,38.474],[20.631,38.258],[20.682,38.282],[20.798,38.131],[20.795,38.066],[20.734,38.062]]],[[[20.716,38.392],[20.764,38.323],[20.706,38.318],[20.619,38.481],[20.672,38.498],[20.709,38.447],[20.675,38.378],[20.716,38.392]]],[[[26.164,38.543],[26.122,38.488],[26.164,38.303],[26.112,38.223],[26.01,38.157],[25.89,38.221],[25.876,38.275],[25.964,38.303],[25.989,38.379],[25.843,38.515],[25.849,38.58],[25.995,38.604],[26.016,38.602],[26.164,38.543]]],[[[25.589,38.612],[25.623,38.579],[25.561,38.535],[25.523,38.597],[25.589,38.612]]],[[[20.585,38.618],[20.545,38.57],[20.585,38.745],[20.686,38.85],[20.716,38.627],[20.648,38.584],[20.585,38.618]]],[[[24.677,38.81],[24.567,38.763],[24.557,38.846],[24.436,38.878],[24.461,38.968],[24.561,38.944],[24.677,38.81]]],[[[24.588,38.159],[24.567,37.988],[24.477,37.962],[24.43,38.021],[24.372,37.972],[24.286,38.086],[24.204,38.09],[24.185,38.218],[24.126,38.217],[24.153,38.281],[24.109,38.256],[24.122,38.309],[24.025,38.331],[24.067,38.351],[24.042,38.402],[23.649,38.406],[23.594,38.453],[23.614,38.558],[23.202,38.83],[22.969,38.889],[22.982,38.845],[22.834,38.845],[23.299,39.042],[23.594,38.77],[24.156,38.653],[24.126,38.599],[24.216,38.54],[24.231,38.522],[24.185,38.408],[24.252,38.228],[24.344,38.159],[24.588,38.159]]],[[[23.436,39.146],[23.399,39.164],[23.47,39.214],[23.513,39.179],[23.436,39.146]]],[[[23.67,39.118],[23.601,39.214],[23.793,39.124],[23.717,39.077],[23.67,39.118]]],[[[23.937,39.221],[23.834,39.146],[23.94,39.28],[23.937,39.221]]],[[[26.612,39.049],[26.539,39.019],[26.489,39.114],[26.455,39.111],[26.437,39.104],[26.547,39.009],[26.521,38.979],[26.166,39.022],[26.088,39.083],[26.28,39.196],[26.187,39.202],[26.064,39.091],[25.889,39.145],[25.842,39.228],[25.917,39.297],[26.163,39.324],[26.164,39.379],[26.343,39.383],[26.362,39.379],[26.417,39.33],[26.382,39.277],[26.612,39.049]]],[[[25.012,39.564],[25.047,39.545],[24.985,39.467],[25.012,39.564]]],[[[20.092,39.434],[20.106,39.365],[19.912,39.43],[19.626,39.748],[19.852,39.825],[19.948,39.79],[19.845,39.653],[19.904,39.629],[19.928,39.625],[19.937,39.473],[20.092,39.434]]],[[[25.45,40.036],[25.348,39.906],[25.349,39.788],[25.239,39.858],[25.251,39.919],[25.177,39.845],[25.215,39.803],[25.143,39.817],[25.165,39.859],[25.047,39.838],[25.033,39.995],[25.225,40.009],[25.285,39.953],[25.45,40.036]]],[[[25.691,40.448],[25.567,40.4],[25.444,40.482],[25.576,40.515],[25.691,40.448]]],[[[24.786,40.735],[24.78,40.612],[24.642,40.571],[24.517,40.639],[24.642,40.804],[24.786,40.735]]],[[[27.566,36.245],[27.619,36.228],[27.532,36.212],[27.566,36.245]]],[[[27.186,36.616],[27.198,36.568],[27.13,36.57],[27.186,36.616]]],[[[26.872,37.134],[26.85,37.098],[26.773,37.183],[26.85,37.187],[26.872,37.134]]],[[[26.599,37.355],[26.546,37.277],[26.536,37.373],[26.599,37.355]]],[[[20.801,38.665],[20.76,38.627],[20.8,38.595],[20.737,38.652],[20.801,38.665]]]]}},{"type":"Feature","properties":{"code":"AT"},"geometry":{"type":"MultiPolygon","coordinates":[[[[16.945,48.604],[16.844,48.366],[17.08,48.098],[17.07,48.036],[17.148,48.005],[17.004,47.863],[17.075,47.708],[16.797,47.675],[16.568,47.754],[16.408,47.661],[16.63,47.622],[16.689,47.538],[16.641,47.453],[16.434,47.397],[16.473,47.277],[16.413,47.187],[16.51,47.138],[16.454,47.082],[16.493,47.049],[16.425,47.024],[16.486,46.999],[16.275,47.004],[15.982,46.828],[16.017,46.671],[15.851,46.724],[15.636,46.718],[15.463,46.615],[15.062,46.65],[14.85,46.601],[14.789,46.507],[14.54,46.379],[14.396,46.441],[12.405,46.69],[12.269,46.789],[12.267,46.868],[12.127,46.909],[12.111,46.993],[12.204,47.053],[12.181,47.085],[11.735,46.971],[11.472,47.007],[11.174,46.964],[10.997,46.769],[10.723,46.786],[10.739,46.83],[10.662,46.861],[10.647,46.864],[10.486,46.846],[10.373,46.996],[10.111,46.847],[9.875,46.927],[9.858,47.015],[9.581,47.057],[9.609,47.081],[9.616,47.107],[9.521,47.263],[9.65,47.41],[9.547,47.535],[9.677,47.523],[9.782,47.588],[10.023,47.488],[10.083,47.359],[10.209,47.372],[10.16,47.271],[10.428,47.396],[10.429,47.577],[10.483,47.533],[10.859,47.531],[10.979,47.391],[11.194,47.429],[11.237,47.394],[11.384,47.445],[11.413,47.506],[11.551,47.514],[11.62,47.59],[12.174,47.605],[12.177,47.706],[12.242,47.732],[12.239,47.679],[12.424,47.692],[12.497,47.629],[12.762,47.667],[12.813,47.612],[12.779,47.555],[13.002,47.466],[13.072,47.659],[12.892,47.724],[12.991,47.847],[12.745,48.121],[13.406,48.377],[13.455,48.573],[13.717,48.522],[13.802,48.612],[13.816,48.766],[13.982,48.706],[14.075,48.592],[14.325,48.559],[14.458,48.643],[14.676,48.576],[14.8,48.777],[14.94,48.763],[14.982,49.008],[15.137,48.993],[15.142,48.937],[15.275,48.987],[15.681,48.858],[15.818,48.872],[16.085,48.743],[16.358,48.727],[16.52,48.806],[16.873,48.719],[16.945,48.604]]]]}},{"type":"Feature","properties":{"code":"IT"},"geometry":{"type":"MultiPolygon","coordinates":[[[[7.022,45.925],[7.154,45.877],[7.541,45.984],[7.844,45.919],[8.111,46.127],[8.087,46.272],[8.399,46.452],[8.446,46.412],[8.438,46.235],[8.602,46.123],[8.809,46.09],[8.768,45.983],[8.871,45.947],[8.9,45.826],[9.002,45.821],[9.063,45.899],[8.981,45.964],[9.002,46.039],[9.225,46.231],[9.282,46.497],[9.435,46.498],[9.444,46.375],[9.536,46.299],[9.918,46.371],[10.076,46.22],[10.159,46.262],[10.092,46.329],[10.141,46.403],[10.026,46.446],[10.033,46.533],[10.192,46.627],[10.295,46.551],[10.444,46.538],[10.459,46.624],[10.369,46.672],[10.454,46.864],[10.997,46.769],[11.174,46.964],[11.472,47.007],[11.735,46.971],[12.181,47.085],[12.204,47.053],[12.111,46.993],[12.127,46.909],[12.267,46.868],[12.269,46.789],[12.405,46.69],[13.701,46.52],[13.677,46.452],[13.365,46.29],[13.41,46.208],[13.637,46.18],[13.462,46.006],[13.606,45.985],[13.566,45.83],[13.779,45.743],[13.895,45.632],[13.848,45.585],[13.712,45.593],[13.808,45.614],[13.574,45.79],[13.402,45.675],[13.431,45.707],[13.369,45.745],[13.119,45.772],[13.075,45.697],[13.15,45.704],[13.085,45.642],[12.424,45.438],[12.582,45.553],[12.397,45.539],[12.424,45.498],[12.31,45.489],[12.216,45.316],[12.154,45.313],[12.181,45.258],[12.217,45.294],[12.23,45.204],[12.307,45.231],[12.297,45.089],[12.369,45.011],[12.369,45.066],[12.534,44.97],[12.445,44.821],[12.407,44.891],[12.416,44.803],[12.266,44.827],[12.284,44.488],[12.369,44.251],[12.692,43.991],[13.616,43.56],[14.075,42.599],[14.56,42.226],[14.709,42.175],[14.741,42.085],[15.165,41.928],[16.14,41.92],[16.184,41.78],[15.9,41.615],[15.961,41.459],[17.057,41.082],[17.476,40.83],[18.007,40.651],[18.037,40.557],[18.238,40.458],[18.516,40.139],[18.411,39.979],[18.389,39.817],[18.072,39.912],[17.967,40.057],[18.003,40.074],[18.011,40.096],[17.863,40.286],[17.399,40.331],[17.2,40.42],[17.323,40.498],[16.976,40.493],[16.605,40.084],[16.632,39.966],[16.49,39.775],[16.546,39.661],[16.782,39.612],[17.159,39.406],[17.115,39.269],[17.125,39.091],[17.206,39.029],[17.172,38.961],[17.104,38.899],[16.839,38.918],[16.586,38.798],[16.535,38.7],[16.57,38.43],[16.169,38.143],[16.077,37.94],[15.684,37.954],[15.635,38.009],[15.633,38.22],[15.813,38.301],[15.918,38.517],[15.837,38.649],[16.153,38.731],[16.222,38.857],[16.083,39.075],[15.995,39.439],[15.806,39.696],[15.774,39.891],[15.624,40.078],[15.41,39.994],[15.261,40.029],[15.127,40.17],[14.911,40.242],[14.998,40.398],[14.782,40.67],[14.343,40.571],[14.338,40.624],[14.474,40.73],[14.294,40.839],[14.048,40.79],[14.021,40.922],[13.722,41.252],[13.544,41.207],[13.286,41.296],[13.045,41.228],[12.894,41.399],[12.635,41.447],[12.448,41.631],[12.239,41.736],[12.17,41.88],[12.02,41.993],[11.827,42.034],[11.658,42.279],[11.377,42.407],[11.107,42.391],[11.099,42.443],[11.188,42.48],[11.158,42.564],[10.944,42.743],[10.891,42.764],[10.731,42.804],[10.764,42.918],[10.5,42.94],[10.528,43.247],[10.317,43.493],[10.252,43.847],[10.091,44.025],[9.845,44.109],[9.832,44.042],[9.231,44.354],[9.211,44.305],[9.102,44.374],[8.762,44.432],[8.466,44.304],[8.408,44.194],[8.257,44.128],[8.168,43.956],[8.068,43.897],[7.737,43.798],[7.502,43.792],[7.483,43.84],[7.478,43.866],[7.69,44.067],[7.656,44.176],[7.341,44.124],[6.973,44.249],[6.87,44.363],[6.918,44.436],[6.836,44.534],[6.96,44.683],[7.055,44.685],[7.005,44.828],[6.745,44.908],[6.723,45.013],[6.603,45.103],[6.736,45.157],[6.844,45.13],[7.108,45.259],[7.093,45.324],[7.161,45.411],[6.983,45.511],[6.963,45.641],[6.816,45.697],[6.782,45.777],[7.022,45.925]],[[12.429,43.892],[12.482,43.983],[12.396,43.948],[12.429,43.892]]],[[[12.0,36.836],[12.038,36.807],[12.052,36.79],[12.053,36.768],[12.031,36.741],[11.925,36.812],[12.0,36.836]]],[[[15.529,38.303],[15.648,38.267],[15.213,37.761],[15.092,37.477],[15.104,37.33],[15.252,37.258],[15.183,37.207],[15.332,37.012],[15.158,36.924],[15.094,36.655],[14.487,36.793],[14.279,37.044],[13.716,37.171],[13.174,37.487],[13.026,37.493],[12.943,37.569],[12.659,37.565],[12.506,37.666],[12.427,37.797],[12.493,38.021],[12.705,38.111],[12.732,38.193],[12.901,38.028],[13.061,38.083],[13.101,38.19],[13.318,38.221],[13.391,38.103],[13.514,38.111],[13.651,38.001],[13.791,37.974],[14.021,38.049],[14.512,38.044],[14.907,38.188],[15.088,38.128],[15.177,38.156],[15.237,38.265],[15.292,38.207],[15.529,38.303]]],[[[14.908,38.474],[14.925,38.522],[14.979,38.488],[14.908,38.474]]],[[[8.456,39.074],[8.41,38.962],[8.346,39.098],[8.456,39.074]]],[[[8.306,39.193],[8.306,39.105],[8.255,39.107],[8.23,39.173],[8.306,39.193]]],[[[13.945,40.702],[13.849,40.715],[13.863,40.762],[13.966,40.735],[13.945,40.702]]],[[[9.792,40.557],[9.8,40.456],[9.626,40.263],[9.655,40.145],[9.732,40.084],[9.602,39.356],[9.635,39.297],[9.568,39.238],[9.566,39.149],[9.519,39.105],[9.292,39.221],[9.166,39.187],[9.014,39.264],[9.08,39.225],[9.018,39.146],[9.026,38.995],[8.853,38.878],[8.717,38.933],[8.641,38.864],[8.56,39.057],[8.373,39.222],[8.432,39.302],[8.374,39.379],[8.463,39.577],[8.444,39.757],[8.566,39.701],[8.514,39.714],[8.504,39.722],[8.555,39.853],[8.463,39.914],[8.435,39.858],[8.395,39.913],[8.377,40.034],[8.49,40.104],[8.476,40.292],[8.386,40.352],[8.38,40.469],[8.292,40.595],[8.147,40.593],[8.197,40.691],[8.134,40.729],[8.21,40.865],[8.215,40.881],[8.193,40.964],[8.31,40.851],[8.521,40.827],[8.823,40.947],[9.231,41.263],[9.278,41.195],[9.422,41.181],[9.443,41.092],[9.469,41.146],[9.56,41.126],[9.512,41.016],[9.663,41.003],[9.504,40.927],[9.642,40.921],[9.614,40.893],[9.724,40.845],[9.658,40.8],[9.792,40.557]]],[[[10.896,42.387],[10.923,42.319],[10.862,42.366],[10.896,42.387]]],[[[10.443,42.845],[10.389,42.763],[10.416,42.709],[10.338,42.765],[10.107,42.757],[10.133,42.812],[10.443,42.845]]],[[[12.352,45.405],[12.431,45.416],[12.321,45.348],[12.352,45.405]]],[[[9.431,41.225],[9.373,41.23],[9.414,41.262],[9.431,41.225]]]]}},{"type":"Feature","properties":{"code":"NL"},"geometry":{"type":"MultiPolygon","coordinates":[[[[7.195,53.245],[7.193,52.998],[7.062,52.824],[7.037,52.647],[6.737,52.635],[6.704,52.583],[6.711,52.577],[6.744,52.56],[6.688,52.543],[6.672,52.542],[6.715,52.462],[6.973,52.451],[7.034,52.391],[7.048,52.365],[7.026,52.231],[6.673,52.05],[6.811,51.961],[6.345,51.821],[6.127,51.897],[6.093,51.885],[6.156,51.842],[5.931,51.816],[5.939,51.732],[6.099,51.644],[6.086,51.596],[6.205,51.458],[6.194,51.345],[6.057,51.212],[6.147,51.152],[5.938,51.031],[5.852,51.043],[5.875,50.965],[6.004,50.974],[6.064,50.908],[5.969,50.795],[5.995,50.75],[5.707,50.754],[5.624,50.83],[5.764,50.959],[5.722,50.959],[5.846,51.103],[5.829,51.156],[5.568,51.208],[5.493,51.287],[5.215,51.259],[5.068,51.375],[5.028,51.477],[4.91,51.392],[4.762,51.413],[4.823,51.414],[4.779,51.495],[4.63,51.418],[4.483,51.474],[4.429,51.462],[4.377,51.443],[4.392,51.35],[3.999,51.453],[3.827,51.391],[3.535,51.459],[3.451,51.53],[3.56,51.595],[3.829,51.613],[3.851,51.611],[3.906,51.569],[3.872,51.549],[3.967,51.543],[4.016,51.531],[4.105,51.446],[4.283,51.448],[4.268,51.508],[3.988,51.59],[4.207,51.59],[4.113,51.639],[4.177,51.686],[3.981,51.81],[3.862,51.816],[4.078,51.844],[4.016,51.988],[4.142,52.006],[4.508,52.336],[4.745,52.968],[4.874,52.904],[5.078,52.954],[5.379,53.097],[5.447,53.221],[5.592,53.303],[5.981,53.406],[6.829,53.451],[6.901,53.352],[7.195,53.245]]],[[[3.349,51.375],[3.541,51.417],[3.834,51.343],[3.984,51.41],[4.221,51.368],[4.119,51.272],[3.809,51.205],[3.61,51.29],[3.392,51.247],[3.349,51.375]]],[[[4.037,51.686],[4.099,51.654],[3.978,51.623],[3.809,51.7],[3.687,51.693],[3.814,51.748],[4.037,51.686]]],[[[4.893,53.111],[4.796,53.0],[4.708,53.028],[4.854,53.188],[4.893,53.111]]],[[[5.674,53.468],[5.914,53.474],[5.955,53.461],[5.679,53.43],[5.654,53.434],[5.636,53.449],[5.674,53.468]]],[[[6.212,53.509],[6.339,53.502],[6.133,53.454],[6.212,53.509]]],[[[6.441,53.557],[6.455,53.558],[6.51,53.544],[6.441,53.557]]]]}},{"type":"Feature","properties":{"code":"HR"},"geometry":{"type":"MultiPolygon","coordinates":[[[[16.515,46.502],[16.838,46.382],[17.053,46.153],[17.209,46.117],[17.29,45.985],[17.591,45.936],[17.657,45.845],[17.858,45.772],[18.404,45.742],[18.656,45.908],[18.776,45.883],[18.901,45.931],[18.845,45.816],[18.968,45.669],[18.904,45.573],[19.106,45.512],[19.01,45.499],[19.031,45.416],[18.977,45.371],[19.408,45.203],[19.226,45.162],[19.122,45.196],[19.138,45.146],[19.045,45.137],[19.132,44.953],[18.991,44.915],[18.994,44.895],[19.016,44.866],[18.89,44.861],[18.783,44.914],[18.792,45.002],[18.684,45.085],[18.517,45.056],[18.238,45.157],[18.154,45.098],[18.003,45.149],[17.836,45.064],[17.685,45.164],[17.482,45.114],[17.269,45.19],[17.187,45.149],[16.924,45.285],[16.812,45.181],[16.529,45.222],[16.316,45.001],[16.122,45.096],[16.02,45.214],[15.792,45.19],[15.728,44.769],[16.028,44.625],[16.006,44.541],[16.116,44.521],[16.216,44.208],[16.327,44.082],[17.031,43.548],[17.271,43.463],[17.29,43.303],[17.628,43.047],[17.635,42.95],[17.516,42.959],[17.502,43.031],[17.434,43.017],[16.881,43.406],[16.391,43.511],[16.473,43.538],[16.457,43.546],[16.434,43.55],[16.118,43.524],[16.172,43.49],[16.111,43.49],[16.113,43.479],[15.959,43.504],[15.987,43.545],[15.925,43.559],[15.919,43.629],[15.966,43.641],[15.921,43.648],[15.905,43.648],[15.95,43.689],[15.706,43.763],[15.145,44.195],[15.141,44.282],[15.295,44.251],[15.261,44.333],[15.529,44.272],[15.308,44.354],[15.007,44.57],[14.884,44.724],[14.922,44.959],[14.853,45.094],[14.571,45.294],[14.312,45.344],[14.144,45.059],[14.151,44.977],[14.069,44.95],[14.04,45.039],[14.076,44.984],[13.973,44.901],[14.0,44.813],[13.89,44.833],[13.903,44.772],[13.787,44.875],[13.842,44.888],[13.774,44.964],[13.623,45.073],[13.613,45.118],[13.639,45.13],[13.726,45.135],[13.596,45.145],[13.61,45.32],[13.541,45.346],[13.507,45.512],[13.889,45.424],[13.972,45.514],[14.373,45.478],[14.581,45.668],[14.668,45.534],[14.797,45.465],[14.923,45.515],[15.139,45.43],[15.325,45.453],[15.361,45.482],[15.269,45.602],[15.374,45.64],[15.255,45.723],[15.451,45.815],[15.676,45.842],[15.698,46.036],[15.59,46.114],[15.64,46.208],[16.019,46.299],[16.058,46.378],[16.276,46.373],[16.235,46.493],[16.344,46.547],[16.515,46.502]]],[[[18.437,42.559],[18.496,42.416],[17.893,42.791],[17.721,42.826],[17.749,42.772],[17.214,42.983],[17.046,42.995],[17.002,43.051],[17.24,43.023],[17.741,42.839],[17.666,42.905],[17.812,42.91],[17.858,42.817],[18.437,42.559]]],[[[16.858,42.784],[16.936,42.756],[16.834,42.731],[16.803,42.763],[16.858,42.784]]],[[[17.659,42.743],[17.749,42.695],[17.324,42.791],[17.659,42.743]]],[[[17.132,42.97],[17.193,42.914],[16.851,42.901],[16.655,42.926],[16.707,42.97],[16.632,42.983],[17.132,42.97]]],[[[16.241,43.072],[16.087,43.011],[16.049,43.065],[16.241,43.072]]],[[[16.693,43.127],[16.372,43.196],[16.583,43.189],[16.521,43.229],[17.193,43.127],[16.943,43.127],[16.693,43.127]]],[[[16.501,43.284],[16.422,43.318],[16.406,43.333],[16.453,43.353],[16.44,43.371],[16.426,43.394],[16.892,43.312],[16.813,43.268],[16.501,43.284]]],[[[15.303,43.966],[15.261,44.011],[15.384,43.97],[15.446,43.888],[15.303,43.966]]],[[[15.145,43.95],[15.217,43.913],[15.22,43.901],[15.121,43.913],[14.85,44.176],[15.145,43.95]]],[[[14.877,44.56],[14.734,44.703],[14.884,44.58],[14.938,44.594],[15.076,44.484],[14.911,44.545],[15.254,44.34],[15.165,44.367],[15.22,44.313],[15.129,44.312],[15.117,44.387],[14.897,44.491],[14.877,44.56]]],[[[14.446,44.566],[14.512,44.482],[14.363,44.573],[14.336,44.717],[14.446,44.566]]],[[[14.74,44.778],[14.658,44.799],[14.727,44.799],[14.686,44.847],[14.739,44.853],[14.859,44.717],[14.74,44.778]]],[[[14.514,44.662],[14.513,44.619],[14.428,44.657],[14.294,44.909],[14.411,44.956],[14.278,45.113],[14.314,45.172],[14.473,44.971],[14.452,44.799],[14.514,44.662]]],[[[14.723,44.943],[14.629,44.978],[14.621,45.046],[14.511,45.032],[14.425,45.087],[14.53,45.135],[14.549,45.249],[14.8,45.005],[14.723,44.943]]],[[[14.613,44.341],[14.644,44.326],[14.661,44.309],[14.613,44.341]]],[[[14.798,44.378],[14.756,44.364],[14.763,44.415],[14.798,44.378]]],[[[14.244,44.661],[14.266,44.68],[14.28,44.678],[14.271,44.613],[14.244,44.661]]]]}},{"type":"Feature","properties":{"code":"SI"},"geometry":{"type":"MultiPolygon","coordinates":[[[[13.643,45.459],[13.569,45.539],[13.753,45.553],[13.712,45.593],[13.848,45.585],[13.895,45.632],[13.779,45.743],[13.581,45.809],[13.606,45.985],[13.462,46.006],[13.637,46.18],[13.41,46.208],[13.365,46.29],[13.677,46.452],[13.701,46.52],[14.406,46.439],[14.54,46.379],[14.789,46.507],[14.85,46.601],[15.062,46.65],[15.463,46.615],[15.636,46.718],[15.851,46.724],[16.017,46.671],[15.972,46.821],[16.094,46.863],[16.325,46.839],[16.314,46.743],[16.411,46.668],[16.376,46.629],[16.501,46.545],[16.515,46.502],[16.358,46.547],[16.264,46.516],[16.276,46.373],[16.058,46.378],[16.019,46.299],[15.64,46.208],[15.59,46.114],[15.698,46.036],[15.676,45.842],[15.451,45.815],[15.255,45.723],[15.374,45.64],[15.269,45.602],[15.361,45.482],[15.325,45.453],[15.139,45.43],[14.923,45.515],[14.797,45.465],[14.668,45.534],[14.581,45.668],[14.373,45.478],[13.972,45.514],[13.889,45.424],[13.643,45.459]]]]}},{"type":"Feature","properties":{"code":"BG"},"geometry":{"type":"MultiPolygon","coordinates":[[[[26.333,41.713],[26.212,41.75],[26.054,41.702],[26.176,41.432],[26.121,41.358],[25.882,41.304],[25.551,41.316],[25.239,41.241],[24.886,41.401],[24.774,41.348],[24.58,41.441],[24.51,41.562],[24.077,41.536],[24.035,41.451],[23.895,41.464],[23.612,41.371],[23.288,41.398],[23.157,41.316],[23.115,41.313],[22.917,41.336],[22.936,41.626],[23.009,41.74],[22.881,41.873],[22.838,42.019],[22.531,42.129],[22.345,42.313],[22.424,42.326],[22.533,42.458],[22.425,42.573],[22.483,42.734],[22.427,42.814],[22.564,42.884],[22.727,42.887],[22.956,43.108],[22.981,43.199],[22.519,43.474],[22.349,43.808],[22.4,43.993],[22.593,44.064],[22.606,44.175],[22.692,44.228],[23.031,44.093],[23.04,44.062],[23.023,44.032],[22.886,43.995],[22.875,43.972],[22.851,43.897],[22.889,43.84],[23.485,43.881],[24.159,43.753],[24.466,43.802],[24.964,43.75],[25.403,43.65],[25.781,43.732],[26.151,44.012],[27.027,44.177],[27.251,44.122],[27.384,44.015],[27.575,44.016],[27.633,44.03],[27.722,43.949],[27.912,43.993],[27.981,43.849],[28.015,43.83],[28.221,43.762],[28.435,43.735],[28.578,43.741],[28.604,43.538],[28.56,43.454],[28.473,43.367],[28.322,43.428],[28.119,43.392],[28.018,43.233],[27.904,43.202],[27.946,43.169],[27.884,43.031],[27.892,42.711],[27.733,42.715],[27.74,42.661],[27.628,42.629],[27.65,42.558],[27.634,42.564],[27.541,42.565],[27.453,42.48],[27.466,42.428],[27.629,42.459],[27.719,42.415],[27.714,42.349],[27.788,42.311],[27.756,42.258],[27.987,42.072],[28.017,41.973],[27.812,41.995],[27.815,41.947],[27.687,41.969],[27.546,41.901],[27.273,42.092],[27.047,42.083],[26.939,41.996],[26.606,41.967],[26.526,41.824],[26.334,41.79],[26.333,41.713]]]]}},{"type":"Feature","properties":{"code":"PT"},"geometry":{"type":"MultiPolygon","coordinates":[[[[-7.105,38.827],[-7.27,38.738],[-7.359,38.446],[-7.104,38.174],[-6.948,38.197],[-7.024,38.023],[-7.123,38.04],[-7.273,37.977],[-7.307,37.851],[-7.53,37.567],[-7.408,37.165],[-7.512,37.172],[-7.82,36.999],[-7.977,36.987],[-8.179,37.088],[-8.58,37.124],[-8.998,37.021],[-8.816,37.418],[-8.827,37.601],[-8.752,37.731],[-8.809,37.723],[-8.805,37.902],[-8.895,37.953],[-8.774,38.187],[-8.795,38.359],[-8.943,38.481],[-8.607,38.419],[-8.736,38.452],[-8.773,38.565],[-8.788,38.481],[-8.906,38.512],[-9.231,38.419],[-9.184,38.552],[-9.253,38.665],[-9.108,38.659],[-8.943,38.776],[-9.012,38.913],[-8.969,38.984],[-8.943,39.015],[-8.765,39.098],[-8.936,39.041],[-9.1,38.83],[-9.113,38.714],[-9.322,38.67],[-9.472,38.702],[-9.497,38.81],[-9.351,39.197],[-9.409,39.375],[-9.218,39.406],[-9.09,39.579],[-8.868,40.125],[-8.785,40.119],[-8.908,40.201],[-8.753,40.641],[-8.573,40.756],[-8.668,40.747],[-8.655,40.845],[-8.751,40.653],[-8.648,41.153],[-8.737,41.25],[-8.831,41.672],[-8.696,41.722],[-8.807,41.697],[-8.83,41.695],[-8.88,41.737],[-8.868,41.859],[-8.627,42.051],[-8.222,42.154],[-8.204,42.07],[-8.095,42.041],[-8.232,41.886],[-8.18,41.811],[-8.093,41.807],[-7.906,41.914],[-7.903,41.887],[-7.897,41.858],[-7.722,41.899],[-7.607,41.873],[-7.606,41.826],[-7.469,41.853],[-7.443,41.806],[-7.219,41.879],[-7.16,41.986],[-7.051,41.942],[-6.609,41.962],[-6.524,41.867],[-6.577,41.74],[-6.542,41.659],[-6.366,41.664],[-6.206,41.57],[-6.321,41.411],[-6.496,41.295],[-6.647,41.268],[-6.804,41.064],[-6.942,41.016],[-6.816,40.857],[-6.85,40.582],[-6.813,40.515],[-6.857,40.442],[-6.794,40.356],[-7.043,40.181],[-6.88,40.009],[-7.021,39.694],[-7.557,39.68],[-7.516,39.594],[-7.314,39.457],[-7.327,39.341],[-7.244,39.196],[-7.168,39.171],[-7.157,39.105],[-6.986,39.067],[-7.105,38.827]]]]}},{"type":"Feature","properties":{"code":"MT"},"geometry":{"type":"MultiPolygon","coordinates":[[[[14.548,35.89],[14.528,35.801],[14.424,35.824],[14.346,35.876],[14.322,35.973],[14.377,35.994],[14.548,35.89]]],[[[14.257,36.076],[14.334,36.034],[14.185,36.035],[14.257,36.076]]]]}}]}